{"type":"FeatureCollection","features":[{"type":"Feature","geometry":{"type":"Polygon","coordinates":[[[-90.43147400031297,43.55371699984844],[-90.67165199977627,43.55285600009277],[-90.66601200002847,43.37942300025084],[-90.66678600015535,43.17177699996462],[-90.60860799957479,43.18537199972394],[-90.58816000000365,43.20099899997125],[-90.5454079997377,43.21145500006528],[-90.43928599975536,43.199630999993296],[-90.33657599974974,43.20978200007853],[-90.29504700004757,43.20759200005042],[-90.27964199964936,43.194121000211375],[-90.26007699998505,43.19768900013602],[-90.220887000382,43.174236000223665],[-90.19381400015067,43.16446399986021],[-90.19196399977308,43.55499600025143],[-90.43147400031297,43.55371699984844]]]},"properties":{"NAME":"Richland County","GEOID":"55103"}},{"type":"Feature","geometry":{"type":"Polygon","coordinates":[[[-88.92647800000678,43.983407999820145],[-89.16861200015286,43.98283400022552],[-89.16812099988319,43.876470000057665],[-89.198324000059,43.87651199999399],[-89.19801500026252,43.81795900030885],[-89.1943749997818,43.81487100005669],[-89.19829899994464,43.812676999973114],[-89.18929999992352,43.804569999979385],[-89.16801799995102,43.8101180001677],[-89.16757699991005,43.76552200016118],[-89.23576799993985,43.76792499967644],[-89.24324800001949,43.76345699969201],[-89.24543700033078,43.64308299984127],[-89.12692100006898,43.64366999985789],[-89.127169999591,43.63172400029992],[-88.88605200031947,43.63354000010806],[-88.88619299988648,43.98323300009831],[-88.92647800000678,43.983407999820145]]]},"properties":{"NAME":"Green Lake County","GEOID":"55047"}},{"type":"Feature","geometry":{"type":"Polygon","coordinates":[[[-88.30487000030345,42.51653400023727],[-88.30638400022205,42.842095000248925],[-88.77707599967889,42.842693999726485],[-88.77659000033037,42.4919129997632],[-88.30469200002821,42.49461799990527],[-88.30487000030345,42.51653400023727]]]},"properties":{"NAME":"Walworth County","GEOID":"55127"}},{"type":"Feature","geometry":{"type":"Polygon","coordinates":[[[-92.08404699978557,44.410254000278705],[-92.07860500040447,44.404869000161696],[-92.05485399973821,44.402099000286654],[-92.02253300029453,44.3823180000747],[-91.97026599962341,44.36584200018745],[-91.94131100012575,44.34097799972629],[-91.92559000025835,44.33354800002757],[-91.9135340000877,44.311391999723185],[-91.92461299974187,44.29181500021648],[-91.89638799999017,44.27468999996861],[-91.89600800004855,44.26287099985447],[-91.88703999998958,44.25177200017315],[-91.89269800017904,44.231105000232596],[-91.87742900022327,44.21292100027039],[-91.8751579998962,44.200575000013394],[-91.82916699990585,44.17834999987519],[-91.8080640000335,44.1592620000754],[-91.75174699970117,44.13478599999397],[-91.72155199992129,44.130341999930366],[-91.71059700011568,44.12048000012863],[-91.70749099956234,44.10390599981942],[-91.68152999956669,44.09740000023129],[-91.64787299958134,44.06410900003621],[-91.61048700032512,44.04931000029134],[-91.59206999998321,44.0313719999982],[-91.55900399982664,44.02531500004808],[-91.55604299993658,44.028942999711525],[-91.57115700008167,44.03782799986663],[-91.57078800001071,44.04487699990555],[-91.55912900039841,44.05308400014176],[-91.5582759997305,44.06243700028237],[-91.55011399958546,44.06783199983316],[-91.54892500025518,44.07417300029778],[-91.5403029998026,44.077242999762476],[-91.54344000031807,44.08194000003471],[-91.53424499958007,44.096318999744604],[-91.54865300026864,44.10793499997857],[-91.55268100018854,44.119115999927295],[-91.54875200000282,44.124390000100895],[-91.56090000023498,44.14507300019441],[-91.57201900007212,44.14931899979898],[-91.57076399972128,44.15232399969847],[-91.5883650001035,44.15358100030734],[-91.58931999998036,44.15967999977287],[-91.60680199963856,44.16380700023826],[-91.61299399975542,44.172605999920656],[-91.59651200017991,44.1839189997571],[-91.59951999992563,44.19403100007973],[-91.60864699999327,44.20077899998529],[-91.5938850002007,44.217374999861434],[-91.5843039996733,44.215487000126735],[-91.58039100027942,44.21798800001665],[-91.58272799983042,44.221045000072145],[-91.5749880003581,44.22261100006871],[-91.57266199977944,44.218644000175736],[-91.56619100000333,44.21995400019049],[-91.56796199983988,44.222439999860306],[-91.55642799990106,44.224924000033845],[-91.55168100010583,44.23377900004533],[-91.53874399967816,44.2352659999299],[-91.53918499971913,44.23949000025949],[-91.53404899976148,44.24100199985714],[-91.53863599972313,44.242101000265734],[-91.5373650003771,44.24685499970261],[-91.52974100035739,44.24677699980278],[-91.5291010001248,44.59619700009132],[-92.00314600000715,44.59683400005569],[-92.02278799966433,44.59051900030846],[-92.02917999979775,44.58629200024319],[-92.03958499978242,44.56420999988006],[-92.03883800031801,44.54696900013166],[-92.04791900035491,44.53043200023319],[-92.04391400000121,44.51237500011916],[-92.056113000287,44.48893500017887],[-92.0593169998513,44.46628899999656],[-92.080881999681,44.431033000229334],[-92.0798809997734,44.41720800027859],[-92.08404699978557,44.410254000278705]]]},"properties":{"NAME":"Buffalo County","GEOID":"55011"}},{"type":"Feature","geometry":{"type":"Polygon","coordinates":[[[-90.48837099970515,45.98153999974871],[-90.30206299962173,45.98134899989994],[-90.30307199992527,46.15484900023806],[-90.42627399988292,46.15405000019739],[-90.42597799960691,46.24045000025407],[-90.55222699966835,46.24085100015358],[-90.54988000007162,46.58355200025264],[-90.4489559999712,46.797400999842424],[-90.26962199962914,46.79818200028604],[-90.00014499981327,47.21496900020089],[-89.9571020001925,47.29110300025223],[-90.65465999966452,47.30982200019525],[-90.867317999906,47.210961999899595],[-90.78019200039878,46.99711499991288],[-90.76638299993492,46.977709999861325],[-90.76609300040504,46.969341999768886],[-90.77964699970245,46.95257100030375],[-90.77932000036259,46.94263300005873],[-90.76258500016881,46.92078000013078],[-90.73585500006912,46.89884500017972],[-90.73286800023979,46.890109000062026],[-90.76668599988365,46.859980999796086],[-90.78027299969132,46.81468699988417],[-90.81059499969282,46.79015099999953],[-90.83742400042503,46.74582900007797],[-90.82202400004967,46.69359399971047],[-90.82898799974527,46.66530100030281],[-90.89220100000117,46.618634000044445],[-90.92705700026085,46.58541499979616],[-90.92517400027131,45.981054999946466],[-90.48837099970515,45.98153999974871]]]},"properties":{"NAME":"Ashland County","GEOID":"55003"}},{"type":"Feature","geometry":{"type":"Polygon","coordinates":[[[-89.67229399959827,45.55570300023499],[-89.42825800009439,45.55535299986579],[-89.4248240003763,45.467166000113615],[-89.34425999998348,45.470014999695046],[-89.04648999974553,45.46443900029878],[-89.04760100015632,45.89535499975775],[-89.17784999965028,45.899311999747326],[-89.1752450003107,45.856579000113165],[-89.30094299982798,45.860689000189716],[-89.30047300037302,45.90146300026422],[-90.04285699989626,45.8972629997456],[-90.04341400028817,45.55508199992466],[-89.67229399959827,45.55570300023499]]]},"properties":{"NAME":"Oneida County","GEOID":"55085"}},{"type":"Feature","geometry":{"type":"Polygon","coordinates":[[[-88.16087300044501,43.5429429997962],[-88.40042599974433,43.54353199968253],[-88.4015439998278,43.37002900023781],[-88.41843899985518,43.370175000052434],[-88.41798699994357,43.19469699977134],[-88.06335299992544,43.19211699979515],[-88.06242599963767,43.36728899984302],[-88.0399849995738,43.36775500015312],[-88.04052799972202,43.54236099995958],[-88.16087300044501,43.5429429997962]]]},"properties":{"NAME":"Washington County","GEOID":"55131"}},{"type":"Feature","geometry":{"type":"Polygon","coordinates":[[[-90.28988400032574,42.814303000287666],[-90.42690200041994,42.812862000240266],[-90.42637799963998,42.507076000074036],[-89.83758699967288,42.50571000006724],[-89.83841000020358,42.81379900011744],[-90.28988400032574,42.814303000287666]]]},"properties":{"NAME":"Lafayette County","GEOID":"55065"}},{"type":"Feature","geometry":{"type":"Polygon","coordinates":[[[-88.73680200032751,44.590605000192255],[-88.60608299958197,44.59051500008762],[-88.60515899966727,44.67833099977485],[-89.22374500027946,44.68136499974689],[-89.22481300013423,44.24339299981046],[-88.73976999989027,44.24330299976842],[-88.73680200032751,44.590605000192255]]]},"properties":{"NAME":"Waupaca County","GEOID":"55135"}},{"type":"Feature","geometry":{"type":"Polygon","coordinates":[[[-89.55481500012739,46.227902999750214],[-89.92915799974986,46.29974799984219],[-89.92883700025781,45.98196699978254],[-90.0439580002613,45.98194800022528],[-90.04285699989626,45.8972629997456],[-89.30047300037302,45.90146300026422],[-89.30094299982798,45.860689000189716],[-89.1752450003107,45.856579000113165],[-89.17784999965028,45.899311999747326],[-89.04760100015632,45.89535499975775],[-89.04779500032507,45.98234500016508],[-88.93322199959437,45.982275999945955],[-88.93275700016227,46.073667999711404],[-89.09163800001203,46.13844699999744],[-89.55481500012739,46.227902999750214]]]},"properties":{"NAME":"Vilas County","GEOID":"55125"}},{"type":"Feature","geometry":{"type":"Polygon","coordinates":[[[-89.24708299959556,43.98251200019862],[-88.88619299988648,43.98323300009831],[-88.88667300028548,44.24262199979273],[-89.59797999994692,44.24572500005862],[-89.59794999980969,43.98209999983349],[-89.24708299959556,43.98251200019862]]]},"properties":{"NAME":"Waushara County","GEOID":"55137"}},{"type":"Feature","geometry":{"type":"Polygon","coordinates":[[[-87.97266200028056,45.76635200007482],[-87.98965600004213,45.772024999819756],[-87.98086999955804,45.77697699972485],[-87.99144699997018,45.795393000120214],[-88.03972799965587,45.789626000028015],[-88.0417439997148,45.783734000263145],[-88.0582529999528,45.780628999957116],[-88.05924600036282,45.713063000247324],[-88.42530200016678,45.72242599987795],[-88.42810200039834,45.37701000013675],[-88.30581099993661,45.37461000013265],[-88.3090630000798,45.201580000069995],[-88.18635499986657,45.197974000076634],[-88.18924700015964,45.11184399979796],[-88.11887900041245,45.11019699991251],[-88.12115200038932,45.023581000145356],[-87.94299499968197,45.020418000271285],[-87.94443599980562,44.993057000267356],[-87.76007099998621,44.990530000034],[-87.7624639996137,44.764366999935845],[-87.55126199956447,45.008048999832134],[-87.49918300011265,44.967876999821556],[-87.45259899974538,45.04568900002574],[-87.44276000037343,45.07647099995274],[-87.58538800007821,45.096924999941066],[-87.59187999977073,45.094689000153096],[-87.63153499970417,45.106223999710835],[-87.65995199997481,45.10751200031465],[-87.6839019999344,45.144134999969786],[-87.73610400030819,45.17224400006404],[-87.74173200036043,45.19820100008516],[-87.72619800009079,45.209390999757474],[-87.72695200012619,45.21894900014874],[-87.72135400021119,45.22684699988598],[-87.72499200014376,45.23213999997451],[-87.71133900021383,45.23996500019021],[-87.7104499995609,45.259323999974],[-87.69878000007793,45.26941999989074],[-87.69824799980037,45.281511999802],[-87.6874989998591,45.2980550001359],[-87.67188900031978,45.30810600014464],[-87.66171100011582,45.32073600017289],[-87.66160300016077,45.327607999765014],[-87.64796500029946,45.33982300028509],[-87.64772900029791,45.35072099995486],[-87.65644700011164,45.35841300026311],[-87.65735000010996,45.368754000076315],[-87.67351299984324,45.376945999767386],[-87.67501699971609,45.38245399982242],[-87.69028099964902,45.389822000014014],[-87.69979699987907,45.38792699971931],[-87.75410400000025,45.34944200003131],[-87.83261200015119,45.3522489999908],[-87.85013300016745,45.34043499993416],[-87.8504179996745,45.34749200014474],[-87.86348899999648,45.353020000259406],[-87.86576399962317,45.36288500004837],[-87.87166299983707,45.36656499969977],[-87.87585899998646,45.36475999983132],[-87.87036700037666,45.356267000218224],[-87.88111399976981,45.351277999888545],[-87.88761499968315,45.35382000005153],[-87.88485499963454,45.36279199974124],[-87.87148499956182,45.37154600012985],[-87.87542399979328,45.37937300018177],[-87.85941800041884,45.3882270001685],[-87.85913100036366,45.39896700011047],[-87.84932200023064,45.40387199975319],[-87.86169700024352,45.43447300008133],[-87.83121700005826,45.45718499994009],[-87.81297600034178,45.464159999925776],[-87.79276899989675,45.4999670000331],[-87.8022409997459,45.51305899992925],[-87.8033899997915,45.53827199977372],[-87.8336900000517,45.5615559998698],[-87.82934800031244,45.56877699983779],[-87.79237200023672,45.56305500003462],[-87.7867659999258,45.58282800031184],[-87.77719899964208,45.588498000198506],[-87.77468200016605,45.602024000201084],[-87.7808449999706,45.614599000008404],[-87.79587999957465,45.618845999921376],[-87.81019500037678,45.638732000041024],[-87.82410299967653,45.647138999964696],[-87.8246779996118,45.653211999824364],[-87.82419100043839,45.66204399972286],[-87.78162300029544,45.67328000025853],[-87.78080800016065,45.68034899994598],[-87.80907499974518,45.69971700021143],[-87.80508100016044,45.70497399992166],[-87.81014400032315,45.71022999973078],[-87.8373449997027,45.71691799984065],[-87.8554800000123,45.72694299970459],[-87.86432000002478,45.7371389999014],[-87.86221100007941,45.745018000147766],[-87.87580000043523,45.75389399993939],[-87.89836299979952,45.752502999930975],[-87.90665999966374,45.759524000086664],[-87.95927700013925,45.757367000180984],[-87.97266200028056,45.76635200007482]]]},"properties":{"NAME":"Marinette County","GEOID":"55075"}},{"type":"Feature","geometry":{"type":"Polygon","coordinates":[[[-90.29068199984377,45.38089500018631],[-90.04227299974016,45.38186599995888],[-90.0439580002613,45.98194800022528],[-90.67696799965898,45.98155399998623],[-90.67877299983073,45.37790699973169],[-90.29068199984377,45.38089500018631]]]},"properties":{"NAME":"Price County","GEOID":"55099"}},{"type":"Feature","geometry":{"type":"Polygon","coordinates":[[[-92.46448600016373,45.98332400025018],[-92.46158399982491,45.9788939999129],[-92.47276100028668,45.97295199974585],[-92.52705199961602,45.983245000140705],[-92.54980599967432,45.96798600019629],[-92.55193300006134,45.95165099979701],[-92.61431399956568,45.934528999887995],[-92.63882400029024,45.93416599989237],[-92.63911999966793,45.92455800014451],[-92.65954899987081,45.922937000227435],[-92.67616699988875,45.91207200001791],[-92.6773519999194,45.90581799969988],[-92.71250299973185,45.89170499968864],[-92.73822000022837,45.86203099988928],[-92.73999100006492,45.84628299994091],[-92.7651460001466,45.83018300012579],[-92.75781500002988,45.80657399991358],[-92.77648199971873,45.790003999828905],[-92.78461700009957,45.76419899975649],[-92.80983699958028,45.744172000141106],[-92.8691929996205,45.71756799979607],[-92.87014500002262,45.6967569997031],[-92.88706699981418,45.64414800024299],[-92.52910700003301,45.64207599983805],[-92.5261570000136,45.72870599979699],[-92.15444300002017,45.725616000076855],[-92.15488800025909,45.63974200004175],[-92.0314169997896,45.63992799976439],[-92.03340400043454,45.98386999990793],[-92.05064699971815,45.98392099985822],[-92.0496359997648,46.15759699982895],[-92.29370499977897,46.15732099975986],[-92.294032999842,46.07437700003594],[-92.33291199999876,46.06269700016009],[-92.35040700007576,46.01636799990797],[-92.37130699955851,46.0139509999581],[-92.41001400018612,46.02725099975979],[-92.42069600018026,46.02676900020246],[-92.44225900036012,46.01617699984269],[-92.45337300017438,45.99291300023007],[-92.46448600016373,45.98332400025018]]]},"properties":{"NAME":"Burnett County","GEOID":"55013"}},{"type":"Feature","geometry":{"type":"Polygon","coordinates":[[[-91.77195800034416,44.596592999812856],[-91.65024799966548,44.59664900022122],[-91.65036099964338,44.68363300008815],[-92.13520200022097,44.68437400011064],[-92.13530000013027,44.53957999992236],[-92.31616900030734,44.541008999774974],[-92.30304600010683,44.518645999697235],[-92.30221500007852,44.50029800011322],[-92.2910050000048,44.48546400023262],[-92.23085599957115,44.444496000023435],[-92.19537800041884,44.43379200031891],[-92.12451299965585,44.42211499982602],[-92.1123080004206,44.4143319998581],[-92.08357200030773,44.407335999880665],[-92.080881999681,44.431033000229334],[-92.0593169998513,44.46628899999656],[-92.056113000287,44.48893500017887],[-92.04391400000121,44.51237500011916],[-92.04791900035491,44.53043200023319],[-92.03883800031801,44.54696900013166],[-92.03958499978242,44.56420999988006],[-92.02917999979775,44.58629200024319],[-92.02278799966433,44.59051900030846],[-92.00314600000715,44.59683400005569],[-91.77195800034416,44.596592999812856]]]},"properties":{"NAME":"Pepin County","GEOID":"55091"}},{"type":"Feature","geometry":{"type":"Polygon","coordinates":[[[-88.67564100011559,45.76600800018694],[-88.67445000023719,45.98086799979015],[-88.68419999992068,45.98244899970864],[-88.68331199999095,46.01411299995952],[-88.7037110000566,46.0182930001132],[-88.71831399984052,46.01318200005619],[-88.7212610003852,46.02222099990837],[-88.73897999986985,46.02745900015203],[-88.75896800003176,46.01963300028837],[-88.77062099979628,46.02556099991459],[-88.76980099963863,46.018943999936056],[-88.78015600029293,46.015394999946544],[-88.78393999981537,46.02384399977297],[-88.77873899956039,46.031690000084744],[-88.78929199968309,46.02845500011909],[-88.79649700030143,46.03365800021833],[-88.8006699999863,46.03003600025845],[-88.7964599995932,46.02360599996688],[-88.81602599998072,46.020585999958406],[-88.81908399995517,46.02631400001603],[-88.83909100038365,46.02997600001237],[-88.85082199996597,46.04031200000746],[-88.93275700016227,46.073667999711404],[-88.93322199959437,45.982275999945955],[-89.04779500032507,45.98234500016508],[-89.04648999974553,45.46443900029878],[-88.92306199983206,45.465136999842116],[-88.92602500027026,45.378636999918015],[-88.42810200039834,45.37701000013675],[-88.42530200016678,45.72242599987795],[-88.67582100004064,45.72290000003102],[-88.67564100011559,45.76600800018694]]]},"properties":{"NAME":"Forest County","GEOID":"55041"}},{"type":"Feature","geometry":{"type":"Polygon","coordinates":[[[-92.15707199964922,45.1216079997176],[-92.15646499992688,45.20955400009256],[-92.75800800037374,45.20956600007934],[-92.76390800041253,45.2048659999631],[-92.76680800020323,45.18546600018004],[-92.75240399971261,45.173915999795895],[-92.74905500038336,45.14866600020957],[-92.75219600019848,45.142494999761894],[-92.73958299963591,45.11559799997733],[-92.79265700004589,45.07876200030795],[-92.80312399995485,45.062573000286164],[-92.79558600014889,45.04924399990372],[-92.76205999968478,45.02432000022205],[-92.77123100013335,45.00137800001128],[-92.76944500022819,44.972149999761854],[-92.75460300006965,44.95576699975117],[-92.75064499957165,44.93729899998399],[-92.75870100030977,44.90897899994505],[-92.77457100014009,44.89808399990537],[-92.76341100029508,44.87414000004994],[-92.76950100030469,44.86200100013429],[-92.13634799989356,44.85784800006822],[-92.13611299971691,45.12138800019592],[-92.15707199964922,45.1216079997176]]]},"properties":{"NAME":"St. Croix County","GEOID":"55109"}},{"type":"Feature","geometry":{"type":"Polygon","coordinates":[[[-88.40442900044819,44.1276850002401],[-88.404070000423,44.24410199984619],[-88.88667300028548,44.24262199979273],[-88.88569699959392,43.895184000282065],[-88.40319500001377,43.89297700016603],[-88.40442900044819,44.1276850002401]]]},"properties":{"NAME":"Winnebago County","GEOID":"55139"}},{"type":"Feature","geometry":{"type":"Polygon","coordinates":[[[-90.67790499999249,45.81130999968981],[-90.67696799965898,45.98155399998623],[-90.92517400027131,45.981054999946466],[-90.92458300044252,46.154615999998406],[-91.55128199989765,46.157045000173156],[-91.55180499995438,45.98329300008632],[-91.54177200041369,45.981398000260626],[-91.54029399958179,45.63760500016699],[-90.67874900043958,45.63826399994511],[-90.67790499999249,45.81130999968981]]]},"properties":{"NAME":"Sawyer County","GEOID":"55113"}},{"type":"Feature","geometry":{"type":"Polygon","coordinates":[[[-89.86375100005813,42.81352399988118],[-89.83841000020358,42.81379900011744],[-89.83813499984397,43.20605700017184],[-89.85888899973686,43.195580999772886],[-89.880081000196,43.19592099994042],[-89.90527599956235,43.18802399973733],[-90.00012300007197,43.1946239999256],[-90.04932500019764,43.16637600015662],[-90.05183099980302,43.149303000154504],[-90.05865999977942,43.14529100030166],[-90.08793900004049,43.16237899989098],[-90.11372599995889,43.16034399986288],[-90.15898300000532,43.16679400014778],[-90.1832710000737,43.1571339998205],[-90.25871600022732,43.19722999979462],[-90.28355499994153,43.19527499983617],[-90.28839899982114,43.20381799980713],[-90.2978020000733,43.20821099989952],[-90.35051300026011,43.20978599987689],[-90.40866300035329,43.200187999704],[-90.42982499977686,43.200940000149906],[-90.42690200041994,42.812862000240266],[-89.86375100005813,42.81352399988118]]]},"properties":{"NAME":"Iowa County","GEOID":"55049"}},{"type":"Feature","geometry":{"type":"Polygon","coordinates":[[[-90.80470700024789,43.105355999686815],[-90.74245499971666,43.12359600019597],[-90.72667600012295,43.14488400017881],[-90.69821299982155,43.1607219998588],[-90.69834199969296,43.16793300024279],[-90.68986300025385,43.17297199971082],[-90.66678600015535,43.17177699996462],[-90.66856100018988,43.422994000191565],[-91.20554999981627,43.42294899971243],[-91.19766999970356,43.39533399987053],[-91.2060720000481,43.37497599996412],[-91.21506199984837,43.36710500010247],[-91.20662000021919,43.35252399974826],[-91.13281299983271,43.328030000224395],[-91.10723699980153,43.313644999901754],[-91.07371000041083,43.274746000095476],[-91.07264900022875,43.26212900001983],[-91.05791800039832,43.25536600002259],[-91.06639799966236,43.23929300005809],[-91.12217000019666,43.19725500023596],[-91.14619999962386,43.15240499967719],[-91.1770029998493,43.131846000123495],[-91.17945699957613,43.06742700031004],[-91.17469200023757,43.03871300017636],[-91.15681200019611,42.988169999800704],[-91.13303399976566,42.99948599979236],[-91.1030669995914,43.00035699971378],[-91.08708499960808,42.993648999725934],[-91.05727499979267,42.99408300017615],[-91.05303299961251,43.00149399971001],[-91.02257800043995,43.00763100003266],[-91.0025249999807,43.02360699984771],[-90.96943100023505,43.03319300007599],[-90.95307799963265,43.0437539997041],[-90.93748099961381,43.06353400003136],[-90.91413599972672,43.062584000239944],[-90.88294900026004,43.073246999758524],[-90.84862600010281,43.07664600011329],[-90.83923899974418,43.08549800016702],[-90.8227939999786,43.088146000091776],[-90.80470700024789,43.105355999686815]]]},"properties":{"NAME":"Crawford County","GEOID":"55023"}},{"type":"Feature","geometry":{"type":"Polygon","coordinates":[[[-91.21185599973593,44.06694299999468],[-91.21672999975277,44.065067000270126],[-91.2209619998872,44.05312700005591],[-91.23187900005796,44.058315999788626],[-91.24747299970375,44.05751300030325],[-91.26588800039582,44.0722110001907],[-91.28419900043252,44.060364999837866],[-91.30475900015664,44.064914000150516],[-91.3159569996365,44.060960999688575],[-91.3186389998673,44.05082100030079],[-91.33207500006225,44.04352899989079],[-91.32787800008792,44.03706000017261],[-91.33963899980749,44.035071000222246],[-91.34009200044233,44.02004000000537],[-91.34467799968075,44.01577899999917],[-91.33693599966028,44.0128890002845],[-91.33806999963728,44.00737399981927],[-91.3284399996044,44.00058300026681],[-91.32875799962171,43.99200599974264],[-91.322532000068,43.99019600017211],[-91.32214299990557,43.98446199994078],[-91.42518799964691,43.98432200010472],[-91.40601100032013,43.963929000183306],[-91.38579800002732,43.95424099976805],[-91.36664199971861,43.937462999702596],[-91.3574250001376,43.91723099979557],[-91.34774099967805,43.911964000016894],[-91.33814099978241,43.89766400012972],[-91.32060499969752,43.88849099987297],[-91.31099099955814,43.86738100023668],[-91.27769500014612,43.837740999785034],[-91.26243299986304,43.7921699996905],[-91.24413500024514,43.77466699974752],[-91.25783900022871,43.72566099990848],[-90.91065299960485,43.725334000127546],[-90.91291800008412,44.07152199972844],[-91.15184500029287,44.070994999686214],[-91.15193200033148,44.07966499977905],[-91.16642600033546,44.08277700029274],[-91.16887599986435,44.088404999846844],[-91.18699799975516,44.085308000314676],[-91.18769200041443,44.090583999956216],[-91.20060300000452,44.0866160000878],[-91.19985399999197,44.076322999984896],[-91.20794900018984,44.07388199975113],[-91.21185599973593,44.06694299999468]]]},"properties":{"NAME":"La Crosse County","GEOID":"55063"}},{"type":"Feature","geometry":{"type":"Polygon","coordinates":[[[-87.88752599999468,44.32758899979744],[-87.76599600013938,44.32724399970394],[-87.76418400029495,44.58914400013404],[-87.75804800025458,44.67705399971156],[-88.13118199955697,44.67692799992168],[-88.23117800044304,44.67236099971409],[-88.23095800033501,44.67955799995008],[-88.25256199962446,44.67981300013771],[-88.25239199974514,44.66021799980057],[-88.24283299985737,44.660773000239836],[-88.24520399974355,44.58474599978218],[-88.19012599986851,44.58519300011016],[-88.19261099955752,44.24194700014588],[-87.88808699968625,44.24046099994161],[-87.88752599999468,44.32758899979744]]]},"properties":{"NAME":"Brown County","GEOID":"55009"}},{"type":"Feature","geometry":{"type":"Polygon","coordinates":[[[-88.04365000016887,44.153497000095456],[-88.04324000009005,44.241018000128676],[-88.404070000423,44.24410199984619],[-88.40418699970056,43.938200000132646],[-88.16165400024461,43.93768300007296],[-88.16227400038571,43.891511000133185],[-88.04179399994351,43.891691999902285],[-88.04365000016887,44.153497000095456]]]},"properties":{"NAME":"Calumet County","GEOID":"55015"}},{"type":"Feature","geometry":{"type":"Polygon","coordinates":[[[-88.68408500029294,45.985079000184115],[-88.67445000023719,45.98086799979015],[-88.67582100004064,45.72290000003102],[-88.36525300019055,45.72214899971422],[-88.05924600036282,45.713063000247324],[-88.0582529999528,45.780628999957116],[-88.09475399965235,45.78575499995652],[-88.1032129998983,45.791254999724856],[-88.10760800023935,45.80303999979519],[-88.12956999972909,45.809316999718625],[-88.13621200010773,45.81873499991853],[-88.0824649998532,45.86496100022488],[-88.07482800031303,45.86490500029188],[-88.07583800044148,45.869630000284324],[-88.06976299960218,45.87293800028084],[-88.08181999959774,45.8802009998346],[-88.10126399978653,45.88228199995993],[-88.10662400005016,45.902212999945746],[-88.09492699990471,45.91532300016048],[-88.10246100041104,45.921546000240824],[-88.12665400004487,45.92179099990445],[-88.12680800003065,45.925993999895454],[-88.147650999612,45.93742700001932],[-88.17008900020113,45.9394919998019],[-88.19205800026188,45.95265099984359],[-88.20990399996815,45.94422100024619],[-88.23710600007094,45.948278000159654],[-88.2448330000228,45.952863999896536],[-88.24689400028755,45.96353200028128],[-88.29384900037562,45.95094100025925],[-88.32030800031364,45.96365699984248],[-88.3272760002072,45.9549570000979],[-88.33027800010515,45.96583500016157],[-88.38050299987974,45.99176499984076],[-88.38864400010839,45.98262300017669],[-88.41638099996347,45.9750919997559],[-88.43476200032033,45.9883399998429],[-88.45003700012391,45.99011200007033],[-88.45867200009697,45.99951400026377],[-88.47077199975023,46.00099800001068],[-88.475205999551,45.99312899969222],[-88.48935499977348,45.991367000209806],[-88.49797800005096,45.9957939998476],[-88.50636399960368,46.01760999984213],[-88.51469200032837,46.020018999995465],[-88.53368600025536,46.021149999945386],[-88.53943200030838,46.014470000066574],[-88.54915100002972,46.01288399981555],[-88.56566299974246,46.015679000045246],[-88.58827000038596,46.00509800018854],[-88.59354799973553,46.0147699999525],[-88.60117799960301,46.01776999975716],[-88.61271200044015,46.004461999888036],[-88.61368300021054,45.98928099970046],[-88.63585300011275,45.98508000013728],[-88.67082700037322,45.98854700003789],[-88.66354499976197,45.99284300026395],[-88.6711649995837,45.99907200029357],[-88.6754510001448,46.01157600020966],[-88.68331199999095,46.01411299995952],[-88.68408500029294,45.985079000184115]]]},"properties":{"NAME":"Florence County","GEOID":"55037"}},{"type":"Feature","geometry":{"type":"Polygon","coordinates":[[[-87.73176400021875,43.89218000015841],[-87.07533500041582,43.89477399989835],[-87.01323400039563,44.13190499978231],[-86.92340300019306,44.328824999936984],[-87.88752599999468,44.32758899979744],[-87.88808699968625,44.24046099994161],[-88.04324000009005,44.241018000128676],[-88.04179399994351,43.891691999902285],[-87.73176400021875,43.89218000015841]]]},"properties":{"NAME":"Manitowoc County","GEOID":"55071"}},{"type":"Feature","geometry":{"type":"Polygon","coordinates":[[[-87.39758500034276,44.67550999984063],[-86.778397999856,44.675218999944946],[-86.68628799982876,44.88100200000284],[-86.50010600014204,45.08062100024119],[-86.2495479999101,45.23612499994635],[-86.75423600018432,45.44360999972072],[-87.10113300020484,45.44423000019731],[-87.17117000041426,45.352540000132414],[-87.31542199964251,45.24065699987353],[-87.40569399988604,45.201969000084915],[-87.45259899974538,45.04568900002574],[-87.49918300011265,44.967876999821556],[-87.55126199956447,45.008048999832134],[-87.7624639996137,44.764366999935845],[-87.76233899994023,44.67701499992752],[-87.39758500034276,44.67550999984063]]]},"properties":{"NAME":"Door County","GEOID":"55029"}},{"type":"Feature","geometry":{"type":"Polygon","coordinates":[[[-91.7980320003177,46.15786999994223],[-92.0496359997648,46.15759699982895],[-92.05064699971815,45.98392099985822],[-92.03340400043454,45.98386999990793],[-92.0314169997896,45.63992799976439],[-91.54029399958179,45.63760500016699],[-91.54177200041369,45.981398000260626],[-91.55180499995438,45.98329300008632],[-91.55128199989765,46.157045000173156],[-91.7980320003177,46.15786999994223]]]},"properties":{"NAME":"Washburn County","GEOID":"55129"}},{"type":"Feature","geometry":{"type":"Polygon","coordinates":[[[-91.40091100034749,43.98422899979103],[-91.32214299990557,43.98446199994078],[-91.322532000068,43.99019600017211],[-91.32875799962171,43.99200599974264],[-91.3284399996044,44.00058300026681],[-91.33806999963728,44.00737399981927],[-91.33693599966028,44.0128890002845],[-91.34454399978645,44.01690499994424],[-91.34009200044233,44.02004000000537],[-91.33963899980749,44.035071000222246],[-91.32838600007604,44.03657399974415],[-91.33207500006225,44.04352899989079],[-91.32017600025043,44.04928999978189],[-91.3159569996365,44.060960999688575],[-91.30747800019735,44.064875999700924],[-91.28419900043252,44.060364999837866],[-91.26588800039582,44.0722110001907],[-91.24747299970375,44.05751300030325],[-91.23187900005796,44.058315999788626],[-91.2209619998872,44.05312700005591],[-91.21672999975277,44.065067000270126],[-91.19985399999197,44.076322999984896],[-91.19947999989816,44.08715999998611],[-91.18682100020315,44.09057399989892],[-91.18699799975516,44.085308000314676],[-91.18040800015336,44.0842530002171],[-91.16887599986435,44.088404999846844],[-91.16642600033546,44.08277700029274],[-91.15193200033148,44.07966499977905],[-91.15356300042596,44.24758300021473],[-91.16554799955318,44.24744500009906],[-91.16586200027086,44.2507980001427],[-91.1656189996983,44.5969869998265],[-91.5291010001248,44.59619700009132],[-91.52974100035739,44.24677699980278],[-91.5373650003771,44.24685499970261],[-91.53863599972313,44.242101000265734],[-91.53404899976148,44.24100199985714],[-91.53918499971913,44.23949000025949],[-91.53874399967816,44.2352659999299],[-91.55168100010583,44.23377900004533],[-91.55712000001219,44.22429100008896],[-91.57225400024875,44.21866700020969],[-91.57440900022488,44.222487999709195],[-91.5822049997737,44.22138699972687],[-91.5843039996733,44.215487000126735],[-91.59364099980323,44.21753600016094],[-91.60095600002644,44.211048000118346],[-91.60864699999327,44.20077899998529],[-91.59951999992563,44.19403100007973],[-91.59651200017991,44.1839189997571],[-91.61262300003466,44.173819999714745],[-91.6123309999566,44.168808999981735],[-91.60680199963856,44.16380700023826],[-91.59566699990789,44.16398899989343],[-91.5883650001035,44.15358100030734],[-91.57076399972128,44.15232399969847],[-91.57201900007212,44.14931899979898],[-91.56090000023498,44.14507300019441],[-91.54875200000282,44.124390000100895],[-91.55268100018854,44.119115999927295],[-91.54865300026864,44.10793499997857],[-91.53424499958007,44.096318999744604],[-91.54344000031807,44.08194000003471],[-91.5403029998026,44.077242999762476],[-91.54892500025518,44.07417300029778],[-91.55011399958546,44.06783199983316],[-91.5582759997305,44.06243700028237],[-91.55912900039841,44.05308400014176],[-91.57078800001071,44.04487699990555],[-91.57115700008167,44.03782799986663],[-91.55606700022604,44.02974099999195],[-91.55900399982664,44.02531500004808],[-91.50712100019341,44.01898000006348],[-91.48086999976954,44.00814500025253],[-91.46351500033292,44.009040999930086],[-91.43411100039836,43.99786799974006],[-91.42518799964691,43.98432200010472],[-91.40091100034749,43.98422899979103]]]},"properties":{"NAME":"Trempealeau County","GEOID":"55121"}},{"type":"Feature","geometry":{"type":"Polygon","coordinates":[[[-90.83476499976044,46.65920399993951],[-90.82514200029857,46.67323200008492],[-90.82202400004967,46.69359399971047],[-90.83742400042503,46.74582900007797],[-90.81059499969282,46.79015099999953],[-90.78027299969132,46.81468699988417],[-90.76668599988365,46.859980999796086],[-90.7365439998072,46.8832209999235],[-90.73285700036914,46.891759999901055],[-90.77932000036259,46.94263300005873],[-90.77964699970245,46.95257100030375],[-90.76609300040504,46.969341999768886],[-90.76638299993492,46.977709999861325],[-90.78019200039878,46.99711499991288],[-90.867317999906,47.210961999899595],[-91.54938499966441,46.89321299980584],[-91.55388799996047,46.51759099969098],[-91.55128199989765,46.157045000173156],[-90.92458300044252,46.154615999998406],[-90.92449899987862,46.25790400022291],[-90.92834100002568,46.284348999982896],[-90.92407000043153,46.366185000262],[-90.92705700026085,46.58541499979616],[-90.89220100000117,46.618634000044445],[-90.83476499976044,46.65920399993951]]]},"properties":{"NAME":"Bayfield County","GEOID":"55007"}},{"type":"Feature","geometry":{"type":"Polygon","coordinates":[[[-89.2233310000027,44.50398399991398],[-89.22374500027946,44.68136499974689],[-89.84493100020842,44.68494500025069],[-89.84454600024395,44.51150299989549],[-89.726724999568,44.511191999938745],[-89.7247460002173,44.24767800006423],[-89.22481300013423,44.24339299981046],[-89.2233310000027,44.50398399991398]]]},"properties":{"NAME":"Portage County","GEOID":"55097"}},{"type":"Feature","geometry":{"type":"Polygon","coordinates":[[[-88.28103300032177,43.54284399998227],[-88.16087300044501,43.5429429997962],[-88.16165400024461,43.93768300007296],[-88.40418699970056,43.938200000132646],[-88.40319500001377,43.89297700016603],[-88.88569699959392,43.895184000282065],[-88.88605200031947,43.63354000010806],[-88.40104099986256,43.630933000020185],[-88.40042599974433,43.54353199968253],[-88.28103300032177,43.54284399998227]]]},"properties":{"NAME":"Fond du Lac County","GEOID":"55039"}},{"type":"Feature","geometry":{"type":"Polygon","coordinates":[[[-88.83209800037572,43.19789699975738],[-89.00883199960444,43.197724000225826],[-89.01358199977271,42.84762999986959],[-88.54153500040594,42.84299599987585],[-88.53584299988128,43.19604800016417],[-88.83209800037572,43.19789699975738]]]},"properties":{"NAME":"Jefferson County","GEOID":"55055"}},{"type":"Feature","geometry":{"type":"Polygon","coordinates":[[[-87.79110799966504,43.543016000317856],[-88.04052799972202,43.54236099995958],[-88.0399849995738,43.36775500015312],[-88.06242599963767,43.36728899984302],[-88.06335299992544,43.19211699979515],[-87.11900800022343,43.19081599975808],[-87.14716600002801,43.379859000140605],[-87.13477799959634,43.541433000223144],[-87.79110799966504,43.543016000317856]]]},"properties":{"NAME":"Ozaukee County","GEOID":"55089"}},{"type":"Feature","geometry":{"type":"Polygon","coordinates":[[[-90.97298600032693,44.59651599988293],[-90.9223499997503,44.596292999767684],[-90.92224699981813,44.85730899992672],[-91.65049100023803,44.85594999982054],[-91.65024799966548,44.59664900022122],[-90.97298600032693,44.59651599988293]]]},"properties":{"NAME":"Eau Claire County","GEOID":"55035"}},{"type":"Feature","geometry":{"type":"Polygon","coordinates":[[[-87.80149199973336,43.8919240002361],[-88.16227400038571,43.891511000133185],[-88.16087300044501,43.5429429997962],[-87.13477799959634,43.541433000223144],[-87.12507899996648,43.670445000246986],[-87.11410200041956,43.73411099992129],[-87.07533500041582,43.89477399989835],[-87.80149199973336,43.8919240002361]]]},"properties":{"NAME":"Sheboygan County","GEOID":"55117"}},{"type":"Feature","geometry":{"type":"Polygon","coordinates":[[[-90.67165199977627,43.55285600009277],[-90.31106900021385,43.55399100026794],[-90.31219399997003,43.73147900013234],[-90.43288500029944,43.72588800018971],[-90.58720699977661,43.72582700006711],[-90.5872129996244,43.72952599993194],[-90.60702199968617,43.729610000218194],[-90.60705699984626,43.72598500003323],[-91.25783900022871,43.72566099990848],[-91.26845500010059,43.70982400003118],[-91.27325200012451,43.66662299993697],[-91.27174900007658,43.654928999882905],[-91.26239699987802,43.641760000023744],[-91.26874800000354,43.61534800010485],[-91.23186499981425,43.58182200017388],[-91.23281200019352,43.564841999729346],[-91.24409300041235,43.54562000023036],[-91.23294100006494,43.523966999890504],[-91.21735300026693,43.51247399983535],[-91.2152819999564,43.48479799974104],[-91.2333670000373,43.45516799988607],[-91.20554999981627,43.42294899971243],[-90.66856100018988,43.422994000191565],[-90.67165199977627,43.55285600009277]]]},"properties":{"NAME":"Vernon County","GEOID":"55123"}},{"type":"Feature","geometry":{"type":"Polygon","coordinates":[[[-88.41870900019192,43.325280999763166],[-88.41843899985518,43.370175000052434],[-88.4015439998278,43.37002900023781],[-88.40104099986256,43.630933000020185],[-89.00684800023087,43.633045000098086],[-89.00447700034469,43.37496199979053],[-89.00882800030479,43.37163699989982],[-89.0089200003663,43.197721000275],[-88.41798699994357,43.19469699977134],[-88.41870900019192,43.325280999763166]]]},"properties":{"NAME":"Dodge County","GEOID":"55027"}},{"type":"Feature","geometry":{"type":"Polygon","coordinates":[[[-88.07091500002085,42.66975600007914],[-87.04389899963049,42.66372900029768],[-87.06941899958517,42.842145999895095],[-88.30638400022205,42.842095000248925],[-88.30589100030257,42.610817000156224],[-88.18817299955877,42.61145599991014],[-88.18830599962817,42.66970899974036],[-88.07091500002085,42.66975600007914]]]},"properties":{"NAME":"Racine County","GEOID":"55101"}},{"type":"Feature","geometry":{"type":"Polygon","coordinates":[[[-88.25236199960791,44.766804999945485],[-88.2482130002125,44.85273900005029],[-88.73619399988198,44.856376000129465],[-88.7355479998016,44.94317800011365],[-88.98131900005535,44.942745000294096],[-88.98167999973036,45.02891700009705],[-89.22381399987644,45.02924599993372],[-89.22374500027946,44.68136499974689],[-88.60515899966727,44.67833099977485],[-88.60608299958197,44.59051500008762],[-88.24520399974355,44.58474599978218],[-88.24283299985737,44.660773000239836],[-88.25239199974514,44.66021799980057],[-88.25256199962446,44.67981300013771],[-88.24268700026752,44.679630999792806],[-88.24267700022176,44.68692999972441],[-88.25236199960791,44.766804999945485]]]},"properties":{"NAME":"Shawano County","GEOID":"55115"}},{"type":"Feature","geometry":{"type":"Polygon","coordinates":[[[-88.36665599978106,44.58775700010706],[-88.73680200032751,44.590605000192255],[-88.73976999989027,44.24330299976842],[-88.19261099955752,44.24194700014588],[-88.19046499980223,44.58679899970391],[-88.36665599978106,44.58775700010706]]]},"properties":{"NAME":"Outagamie County","GEOID":"55087"}},{"type":"Feature","geometry":{"type":"Polygon","coordinates":[[[-91.55108400042926,46.331030999832855],[-91.55388799996047,46.51759099969098],[-91.54938499966441,46.89321299980584],[-91.98134099997795,46.72309100017288],[-92.02029399975451,46.704040999991335],[-92.03398900041556,46.70893900017788],[-92.08949300026293,46.749236999905385],[-92.1165899998854,46.74863999973305],[-92.14328999984785,46.73464000011765],[-92.14152200038436,46.725285000286775],[-92.14673000031202,46.71579400015771],[-92.16729099986108,46.71994100006151],[-92.18909099986742,46.71754099994455],[-92.2046910002593,46.704040999991335],[-92.2051919996764,46.698340999773045],[-92.182999000208,46.695651999937134],[-92.17587499978049,46.68646599991195],[-92.20409200003459,46.666941000088144],[-92.20159200027699,46.65664099998668],[-92.2070920002827,46.651941000061356],[-92.24249300034045,46.64924099984774],[-92.25659200033422,46.65874099993269],[-92.27059199969545,46.650741000299746],[-92.29128899968694,46.66813700026488],[-92.29370499977897,46.15732099975986],[-91.55128199989765,46.157045000173156],[-91.55108400042926,46.331030999832855]]]},"properties":{"NAME":"Douglas County","GEOID":"55031"}},{"type":"Feature","geometry":{"type":"Polygon","coordinates":[[[-87.80559800036939,42.66789999998438],[-88.18830599962817,42.66970899974036],[-88.18817299955877,42.61145599991014],[-88.30589100030257,42.610817000156224],[-88.30469200002821,42.49461799990527],[-87.01986300035549,42.4937630000481],[-87.04389899963049,42.66372900029768],[-87.80559800036939,42.66789999998438]]]},"properties":{"NAME":"Kenosha County","GEOID":"55059"}},{"type":"Feature","geometry":{"type":"Polygon","coordinates":[[[-88.80679099995804,45.117674999903976],[-88.64115899994971,45.117345999723206],[-88.63817399977022,45.204814999743434],[-88.68006599969554,45.20499399969242],[-88.67799600010825,45.37868299993912],[-88.92602500027026,45.378636999918015],[-88.92306199983206,45.465136999842116],[-89.34425999998348,45.470014999695046],[-89.4248240003763,45.467166000113615],[-89.4259709998738,45.11909800023967],[-89.22421399990954,45.11856700024507],[-89.22381399987644,45.02924599993372],[-88.98167999973036,45.02891700009705],[-88.98245999970506,45.117998000270696],[-88.80679099995804,45.117674999903976]]]},"properties":{"NAME":"Langlade County","GEOID":"55067"}},{"type":"Feature","geometry":{"type":"Polygon","coordinates":[[[-90.66661600027605,43.17176000022117],[-90.68986300025385,43.17297199971082],[-90.69834199969296,43.16793300024279],[-90.69821299982155,43.1607219998588],[-90.72667600012295,43.14488400017881],[-90.74124999959454,43.124314000184995],[-90.79829099982506,43.10909600015468],[-90.8227939999786,43.088146000091776],[-90.83923899974418,43.08549800016702],[-90.84574600040362,43.07762499993419],[-90.88294900026004,43.073246999758524],[-90.91413599972672,43.062584000239944],[-90.93748099961381,43.06353400003136],[-90.95307799963265,43.0437539997041],[-90.96943100023505,43.03319300007599],[-91.0025249999807,43.02360699984771],[-91.02257800043995,43.00763100003266],[-91.05303299961251,43.00149399971001],[-91.05727499979267,42.99408300017615],[-91.08708499960808,42.993648999725934],[-91.11453399958307,43.0003019997513],[-91.13655200004763,42.99891499973608],[-91.14905500010703,42.9932140001097],[-91.15681200019611,42.988169999800704],[-91.15689300038697,42.980815000176925],[-91.14542999969493,42.95821100024359],[-91.14988000028754,42.941954999918906],[-91.14380000032368,42.92287700029582],[-91.14561499964286,42.90800600013706],[-91.11741099980755,42.89583700028688],[-91.10056500018396,42.883078000216855],[-91.09765600017246,42.859871000136536],[-91.09140200013132,42.849859999989604],[-91.09406000007267,42.830812999805794],[-91.07866499972019,42.82767799993532],[-91.06954900042152,42.76962800011304],[-91.0602609997971,42.761846999680664],[-91.06578300044242,42.75338699995389],[-91.05629700034957,42.74734099984299],[-91.05373300011956,42.738238000322234],[-91.03541799988493,42.73733999992793],[-91.02678600028491,42.724227999887084],[-91.00012800015526,42.71618899976297],[-90.97773499977198,42.69681599996949],[-90.94921000044462,42.685569000321074],[-90.9211549996739,42.685406000187925],[-90.8874299999165,42.672470000312394],[-90.70920399961216,42.636078000316175],[-90.6939990001288,42.61450900014062],[-90.68697500015872,42.591774000168925],[-90.66152700017406,42.56799899980691],[-90.65412699956204,42.54989999995724],[-90.64468700039828,42.54131699991232],[-90.63582899994415,42.517927999713635],[-90.64284299986848,42.508481000028475],[-90.42637699981509,42.507172999848464],[-90.42982499977686,43.200940000149906],[-90.5454079997377,43.21145500006528],[-90.58816000000365,43.20099899997125],[-90.60860799957479,43.18537199972394],[-90.66661600027605,43.17176000022117]]]},"properties":{"NAME":"Grant County","GEOID":"55043"}},{"type":"Feature","geometry":{"type":"Polygon","coordinates":[[[-89.24505800021412,43.75981300009139],[-89.23576799993985,43.76792499967644],[-89.16757699991005,43.76552200016118],[-89.16801799995102,43.8101180001677],[-89.18929999992352,43.804569999979385],[-89.19829899994464,43.812676999973114],[-89.1943749997818,43.81487100005669],[-89.19801500026252,43.81795900030885],[-89.198324000059,43.87651199999399],[-89.16812099988319,43.876470000057665],[-89.16861200015286,43.98283400022552],[-89.59794999980969,43.98209999983349],[-89.59954699956897,43.642635999927684],[-89.24543700033078,43.64308299984127],[-89.24505800021412,43.75981300009139]]]},"properties":{"NAME":"Marquette County","GEOID":"55077"}},{"type":"Feature","geometry":{"type":"Polygon","coordinates":[[[-90.59964899973663,43.72953999977145],[-90.5872129996244,43.72952599993194],[-90.58720699977661,43.72582700006711],[-90.43288500029944,43.72588800018971],[-90.31219399997003,43.73147900013234],[-90.3125220000331,44.155198000095126],[-90.43573200038666,44.16112900014573],[-90.90457900038709,44.158298000062906],[-90.92569200030518,44.14597899969829],[-90.93875500023121,44.14739300029073],[-90.94399300029612,44.143600999742084],[-90.94704899972243,44.14723699983631],[-90.95857500016363,44.137177000119145],[-90.96685799978418,44.13590800021751],[-90.97033199968521,44.128646999767085],[-90.97727899966239,44.12960799969088],[-90.96723100005309,44.1199790001473],[-90.97366099982133,44.11658500025672],[-90.97310699980244,44.07088200005209],[-90.91291800008412,44.07152199972844],[-90.91065299960485,43.725334000127546],[-90.60705699984626,43.72598500003323],[-90.60702199968617,43.729610000218194],[-90.59964899973663,43.72953999977145]]]},"properties":{"NAME":"Monroe County","GEOID":"55081"}},{"type":"Feature","geometry":{"type":"Polygon","coordinates":[[[-88.98245999970506,45.117998000270696],[-88.98131900005535,44.942745000294096],[-88.7355479998016,44.94317800011365],[-88.73619399988198,44.856376000129465],[-88.48914899990916,44.85544500006734],[-88.48373199974411,45.11688699981617],[-88.98245999970506,45.117998000270696]]]},"properties":{"NAME":"Menominee County","GEOID":"55078"}},{"type":"Feature","geometry":{"type":"Polygon","coordinates":[[[-89.71635800011646,43.322029999981254],[-89.70532799996779,43.32875800028938],[-89.67761299985402,43.361197000207596],[-89.64497000019506,43.36188100014404],[-89.60072999994976,43.38066600009367],[-89.59935599977327,43.558017000051386],[-89.60580800018111,43.5625640000735],[-89.73054699962358,43.570436999741815],[-89.73444700039529,43.57876700014643],[-89.71764500025435,43.597607000190614],[-89.73990499966992,43.59815599985774],[-89.75270200035551,43.605740000157844],[-89.76746099977503,43.606309000312685],[-89.77536400035228,43.613761000235534],[-89.77336900020974,43.62034800029315],[-89.78235200033735,43.62564500012928],[-89.77604600041767,43.63193900005365],[-89.78580899962164,43.64104900008378],[-90.3124040000323,43.6409880000966],[-90.31106900021385,43.55399100026794],[-90.19196399977308,43.55499600025143],[-90.19381400015067,43.16446399986021],[-90.1843120001643,43.157560000029854],[-90.15898300000532,43.16679400014778],[-90.11372599995889,43.16034399986288],[-90.08793900004049,43.16237899989098],[-90.05865999977942,43.14529100030166],[-90.05183099980302,43.149303000154504],[-90.04932500019764,43.16637600015662],[-90.00012300007197,43.1946239999256],[-89.90527599956235,43.18802399973733],[-89.880081000196,43.19592099994042],[-89.85888899973686,43.195580999772886],[-89.84140700007866,43.20290799998394],[-89.80562299970627,43.23878900027109],[-89.75959999992887,43.24100199989082],[-89.74895499974465,43.24875100022378],[-89.73138199984984,43.25249099989691],[-89.71343800023429,43.28100599971796],[-89.72717099963184,43.30130500006299],[-89.71635800011646,43.322029999981254]]]},"properties":{"NAME":"Sauk County","GEOID":"55111"}},{"type":"Feature","geometry":{"type":"Polygon","coordinates":[[[-89.75927500023886,43.64186500003145],[-89.78580899962164,43.64104900008378],[-89.77577600008094,43.631304999803646],[-89.78235200033735,43.62564500012928],[-89.77336900020974,43.62034800029315],[-89.77536400035228,43.613761000235534],[-89.76325799995293,43.603888999899304],[-89.75431599983321,43.60605199982551],[-89.7403110004491,43.59823100029784],[-89.71841500018328,43.598543999772424],[-89.72115099994244,43.59029399988387],[-89.73444700039529,43.57876700014643],[-89.73054699962358,43.570436999741815],[-89.69733700042529,43.56600900031125],[-89.66573800033167,43.56916900003835],[-89.63876600038265,43.56293200031096],[-89.61427599974958,43.56514499974424],[-89.59935699959816,43.55804100003622],[-89.60072999994976,43.38066600009367],[-89.63137300034164,43.36539500015089],[-89.67926900006285,43.36018500020842],[-89.70383199959252,43.3302959997591],[-89.72363200033179,43.3144510001809],[-89.72717099963184,43.30130500006299],[-89.72046300002927,43.293084000226834],[-89.36315900037421,43.29403599974004],[-89.36239500029306,43.28129599969209],[-89.0091389997511,43.28482999992188],[-89.00882800030479,43.37163699989982],[-89.00447700034469,43.37496199979053],[-89.00684800023087,43.633045000098086],[-89.127169999591,43.63172400029992],[-89.12692100006898,43.64366999985789],[-89.75927500023886,43.64186500003145]]]},"properties":{"NAME":"Columbia County","GEOID":"55021"}},{"type":"Feature","geometry":{"type":"Polygon","coordinates":[[[-87.95925500039793,43.192407000029554],[-88.06335299992544,43.19211699979515],[-88.06992400015899,42.84332299993456],[-87.06941899958517,42.842145999895095],[-87.11900800022343,43.19081599975808],[-87.95925500039793,43.192407000029554]]]},"properties":{"NAME":"Milwaukee County","GEOID":"55079"}},{"type":"Feature","geometry":{"type":"Polygon","coordinates":[[[-91.7858170001384,45.63868499984826],[-92.15488800025909,45.63974200004175],[-92.15646499992688,45.20955400009256],[-91.54223400037105,45.20653799992433],[-91.54029399958179,45.63760500016699],[-91.7858170001384,45.63868499984826]]]},"properties":{"NAME":"Barron County","GEOID":"55005"}},{"type":"Feature","geometry":{"type":"Polygon","coordinates":[[[-90.18805100037922,46.45826900011853],[-90.1936069995631,46.46328499991388],[-90.18887300018667,46.4689799997468],[-90.20421199956434,46.47830899981378],[-90.21663699980593,46.5016370000446],[-90.23091800027288,46.501528999911606],[-90.23097000015142,46.509841999697805],[-90.26154800024595,46.502561999741765],[-90.26656700002775,46.50785500000962],[-90.27255099973213,46.5045119998336],[-90.27044099996188,46.51168300013092],[-90.27762300011568,46.51481000023606],[-90.27179599987181,46.51926500010745],[-90.27694000022538,46.52444700021029],[-90.28446399978765,46.51871500018894],[-90.29458900028817,46.521659999923905],[-90.31655400015096,46.51689599992806],[-90.30944099959412,46.53728499990318],[-90.31615999996566,46.54050399995997],[-90.31547700007536,46.54469700014519],[-90.32673099963169,46.54607099978624],[-90.3275829995764,46.55161000029656],[-90.3366209999556,46.55412099977136],[-90.34424099977733,46.5518030000303],[-90.34028400000253,46.54823800018031],[-90.34722699978172,46.54898799978649],[-90.35068399996435,46.5403249999909],[-90.36822900027005,46.54113200007919],[-90.39326200015302,46.53243300011486],[-90.39221600003957,46.536047999901484],[-90.4150439997177,46.557672999709936],[-90.41839200012036,46.566099000200886],[-90.26962199962914,46.79818200028604],[-90.4489559999712,46.797400999842424],[-90.54988000007162,46.58355200025264],[-90.55222699966835,46.24085100015358],[-90.42597799960691,46.24045000025407],[-90.42627399988292,46.15405000019739],[-90.30307199992527,46.15484900023806],[-90.30206299962173,45.98134899989994],[-89.92883700025781,45.98196699978254],[-89.92915799974986,46.29974799984219],[-90.12143000034452,46.33742499976865],[-90.11798400003256,46.34150499969934],[-90.12365100044286,46.346264999918894],[-90.11685199970539,46.35065100021513],[-90.11870299990788,46.35934500030827],[-90.13398600010736,46.37178900026254],[-90.13217699973767,46.381119999764145],[-90.158368999712,46.40945399996268],[-90.15729800038248,46.42112199994373],[-90.16765899998626,46.44204000012498],[-90.1783500002012,46.44046499984289],[-90.17832500008684,46.45740799984456],[-90.18805100037922,46.45826900011853]]]},"properties":{"NAME":"Iron County","GEOID":"55051"}},{"type":"Feature","geometry":{"type":"Polygon","coordinates":[[[-88.13118199955697,44.67692799992168],[-87.76233899994023,44.67701499992752],[-87.76007099998621,44.990530000034],[-87.94443599980562,44.993057000267356],[-87.94299499968197,45.020418000271285],[-88.12115200038932,45.023581000145356],[-88.11887900041245,45.11019699991251],[-88.18924700015964,45.11184399979796],[-88.18635499986657,45.197974000076634],[-88.3090630000798,45.201580000069995],[-88.30581099993661,45.37461000013265],[-88.67799000026046,45.37893099973732],[-88.68006599969554,45.20499399969242],[-88.63817399977022,45.204814999743434],[-88.64115899994971,45.117345999723206],[-88.48373199974411,45.11688699981617],[-88.48914899990916,44.85544500006734],[-88.2482130002125,44.85273900005029],[-88.25236199960791,44.766804999945485],[-88.24268700026752,44.679630999792806],[-88.23095800033501,44.67955799995008],[-88.23117800044304,44.67236099971409],[-88.13118199955697,44.67692799992168]]]},"properties":{"NAME":"Oconto County","GEOID":"55083"}},{"type":"Feature","geometry":{"type":"Polygon","coordinates":[[[-90.92244099998689,44.95190000019739],[-90.92522199995189,45.292060999868994],[-91.5413220001519,45.292219999818286],[-91.54223400037105,45.20653799992433],[-91.66564700021591,45.20799099995036],[-91.66640200007622,45.120823000144824],[-91.65147100022925,45.1204339996981],[-91.65045500025302,44.85595100023304],[-90.92224699981813,44.85730899992672],[-90.92244099998689,44.95190000019739]]]},"properties":{"NAME":"Chippewa County","GEOID":"55017"}},{"type":"Feature","geometry":{"type":"Polygon","coordinates":[[[-89.72683599989608,45.119966000175765],[-90.19776500007768,45.120603999738904],[-90.19751599965733,45.033639999916474],[-90.31503799968421,45.03382899981522],[-90.31625299985207,44.68515400031543],[-89.49083600014053,44.68586100003281],[-89.22374500027946,44.68136499974689],[-89.22421399990954,45.11856700024507],[-89.72683599989608,45.119966000175765]]]},"properties":{"NAME":"Marathon County","GEOID":"55073"}},{"type":"Feature","geometry":{"type":"Polygon","coordinates":[[[-89.0135180001986,42.84762800032008],[-89.36912800000998,42.845036000197155],[-89.365798000049,42.50007799976698],[-88.77659000033037,42.4919129997632],[-88.77707599967889,42.842693999726485],[-89.0135180001986,42.84762800032008]]]},"properties":{"NAME":"Rock County","GEOID":"55105"}},{"type":"Feature","geometry":{"type":"Polygon","coordinates":[[[-90.31503799968421,45.03382899981522],[-90.19751599965733,45.033639999916474],[-90.19776500007768,45.120603999738904],[-90.04368499955152,45.12021400008654],[-90.04649499982884,45.309352999853196],[-90.04227299974016,45.38186599995888],[-90.46049499993289,45.37689799991613],[-90.92534300032571,45.37935000014104],[-90.92336200042688,45.03114299972308],[-90.31503799968421,45.03382899981522]]]},"properties":{"NAME":"Taylor County","GEOID":"55119"}},{"type":"Feature","geometry":{"type":"Polygon","coordinates":[[[-92.15704800025809,45.12371600027553],[-92.13611299971691,45.12138800019592],[-92.13520200022097,44.68437400011064],[-91.65036099964338,44.68363300008815],[-91.65147100022925,45.1204339996981],[-91.66640200007622,45.120823000144824],[-91.66564700021591,45.20799099995036],[-92.15646499992688,45.20955400009256],[-92.15704800025809,45.12371600027553]]]},"properties":{"NAME":"Dunn County","GEOID":"55033"}},{"type":"Feature","geometry":{"type":"Polygon","coordinates":[[[-87.64419599994733,44.327543000073554],[-86.92340300019306,44.328824999936984],[-86.8476940004488,44.5003389998039],[-86.85518399967587,44.5003389998039],[-86.778397999856,44.675218999944946],[-87.75804800025458,44.67705399971156],[-87.76418400029495,44.58914400013404],[-87.7660260002766,44.32718400023492],[-87.64419599994733,44.327543000073554]]]},"properties":{"NAME":"Kewaunee County","GEOID":"55061"}},{"type":"Feature","geometry":{"type":"Polygon","coordinates":[[[-90.3175149998756,44.291821999994006],[-90.31605500038368,44.42450199997367],[-90.801917999887,44.4224420002228],[-90.8015250004249,44.50968099978621],[-90.92288899970055,44.50984000016337],[-90.92224299962017,44.59629100017582],[-91.1656189996983,44.5969869998265],[-91.16586200027086,44.2507980001427],[-91.16554799955318,44.24744500009906],[-91.15356300042596,44.24758300021473],[-91.15184500029287,44.070994999686214],[-90.97310699980244,44.07088200005209],[-90.97366099982133,44.11658500025672],[-90.96723100005309,44.1199790001473],[-90.97783199985636,44.12892799974133],[-90.97033199968521,44.128646999767085],[-90.96685799978418,44.13590800021751],[-90.95857500016363,44.137177000119145],[-90.94704899972243,44.14723699983631],[-90.94399300029612,44.143600999742084],[-90.93875500023121,44.14739300029073],[-90.92569200030518,44.14597899969829],[-90.90457900038709,44.158298000062906],[-90.43573200038666,44.16112900014573],[-90.3125220000331,44.155198000095126],[-90.31268000021683,44.24875000023555],[-90.31803200008456,44.24870799972502],[-90.3175149998756,44.291821999994006]]]},"properties":{"NAME":"Jackson County","GEOID":"55053"}},{"type":"Feature","geometry":{"type":"Polygon","coordinates":[[[-92.374916999902,44.862300999878606],[-92.76950100030469,44.86200100013429],[-92.76593199996908,44.835630999856804],[-92.78075400003611,44.812299999950696],[-92.78562200020517,44.7918869999466],[-92.80444500042792,44.770759999957725],[-92.8084149997232,44.75160399979811],[-92.79233599965552,44.73936200002839],[-92.73204300018013,44.71434499999391],[-92.66098800034467,44.66089999997222],[-92.6320210002531,44.649186999955084],[-92.62021500032772,44.63419400004061],[-92.62164200020769,44.614929000208015],[-92.601608000015,44.612038000233504],[-92.58621600003559,44.60008800003348],[-92.57715599991509,44.60503700007851],[-92.56894600008948,44.6033719998859],[-92.55039999987615,44.582055000126],[-92.55146000023332,44.57147200022273],[-92.54676799979137,44.567374999997575],[-92.5187000003985,44.57522799994873],[-92.49371699984593,44.566052000066385],[-92.4809860001809,44.56844899984663],[-92.45889599974632,44.56274499998621],[-92.43862599955212,44.5526390000174],[-92.41567499985032,44.560506000000096],[-92.35731300004504,44.5584799996945],[-92.3326759999972,44.552574000293234],[-92.31616900030734,44.541008999774974],[-92.13530000013027,44.53957999992236],[-92.13634799989356,44.85784800006822],[-92.374916999902,44.862300999878606]]]},"properties":{"NAME":"Pierce County","GEOID":"55093"}},{"type":"Feature","geometry":{"type":"Polygon","coordinates":[[[-89.78741899979971,43.663375000047246],[-89.78926599980424,43.64538000013248],[-89.78490099960045,43.64105099976259],[-89.59954699956897,43.642635999927684],[-89.59797999994692,44.24572500005862],[-89.90278300037573,44.249473000048056],[-89.89764300022013,44.228110000225236],[-89.90810199973319,44.228888999723665],[-89.90798799993037,44.2205549997023],[-89.92483299972905,44.21353299986986],[-89.90501299979661,44.20160399971326],[-89.92702200004032,44.193674000000456],[-89.90359500013747,44.19143399993186],[-89.9028140003379,44.17868200009031],[-89.92403799968575,44.17747399985821],[-89.9228230004162,44.154501000080955],[-89.92868400009695,44.15030399978014],[-89.93675800037843,44.15299599980128],[-89.9417129996878,44.16343400004018],[-89.97048200031094,44.16711399968202],[-89.97377299991389,44.13457000024137],[-89.98469500010754,44.129251000306645],[-89.97500899999815,44.12776500008624],[-89.97572899969836,44.12391499981333],[-89.98574600024385,44.122095999775276],[-89.99308999988106,44.126957999920435],[-90.00705599980543,44.12160700030545],[-90.01046199993442,44.11354199986217],[-90.00404300003683,44.10334799988775],[-90.01752699991238,44.10028700019695],[-90.02595299964804,44.09174799984557],[-90.02533800042812,44.068324000159],[-90.0196629996219,44.0638350002001],[-90.01813500035792,44.046031999872426],[-89.99846900041128,44.022551000123066],[-90.00588699966832,44.008390999782755],[-89.96815400008248,43.99161199968875],[-89.96227599978498,43.96376000029259],[-89.95526799970844,43.95529200030064],[-89.95210099995406,43.92419700020693],[-89.97939299957021,43.918692999819264],[-89.98419100031737,43.9118150002021],[-89.97862799966416,43.89921499983571],[-89.96294799980463,43.88339899983256],[-89.96260999969581,43.86649400027734],[-89.92230799985707,43.83846800030867],[-89.91338099980598,43.81799300023093],[-89.90283899955394,43.81408600020235],[-89.89361199992716,43.79974500024485],[-89.86551100002404,43.783700000210985],[-89.850724999942,43.76902100022046],[-89.84290500010374,43.757480000085664],[-89.84104100038077,43.735951000098304],[-89.82279700029123,43.697894000077866],[-89.8082570002565,43.677724000305915],[-89.78830699972941,43.66860100011031],[-89.78741899979971,43.663375000047246]]]},"properties":{"NAME":"Adams County","GEOID":"55001"}},{"type":"Feature","geometry":{"type":"Polygon","coordinates":[[[-92.15488800025909,45.63974200004175],[-92.15444300002017,45.725616000076855],[-92.5261570000136,45.72870599979699],[-92.52910700003301,45.64207599983805],[-92.88706699981418,45.64414800024299],[-92.88374900044705,45.57548299996591],[-92.87108200035615,45.567580999775316],[-92.82330899976026,45.56093400004966],[-92.77022299965472,45.56693900008903],[-92.72608200004194,45.54111199986002],[-92.7266770000687,45.51446199991597],[-92.71286299958199,45.50484899980765],[-92.68023400016672,45.464343999753254],[-92.65354900027289,45.455346000007324],[-92.64660200029572,45.44163500021831],[-92.65042000015333,45.39850999984103],[-92.66410400004541,45.39330800017305],[-92.67918700022835,45.37270999991087],[-92.70272299991116,45.35846800023376],[-92.69896699997781,45.33637400018176],[-92.7086749998285,45.32252499993609],[-92.73712100041146,45.30045900018445],[-92.76200399960828,45.28821299995284],[-92.75192000001394,45.26587700021159],[-92.76026399973387,45.25171700025237],[-92.75170800030183,45.21866600001898],[-92.75800800037374,45.20956600007934],[-92.15646499992688,45.20955400009256],[-92.15488800025909,45.63974200004175]]]},"properties":{"NAME":"Polk County","GEOID":"55095"}},{"type":"Feature","geometry":{"type":"Polygon","coordinates":[[[-89.36685199966006,42.604680000263144],[-89.36906899956044,42.85647100016291],[-89.83816699963103,42.85739699981408],[-89.83758699967288,42.50571000006724],[-89.365798000049,42.50007799976698],[-89.36685199966006,42.604680000263144]]]},"properties":{"NAME":"Green County","GEOID":"55045"}},{"type":"Feature","geometry":{"type":"Polygon","coordinates":[[[-89.05553599962234,42.847520000181255],[-89.01358199977271,42.84762999986959],[-89.0091389997511,43.28482999992188],[-89.36239500029306,43.28129599969209],[-89.36315900037421,43.29403599974004],[-89.72046300002927,43.293084000226834],[-89.71343800023429,43.28100599971796],[-89.73173800040034,43.252203000202165],[-89.74895499974465,43.24875100022378],[-89.75959999992887,43.24100199989082],[-89.80562299970627,43.23878900027109],[-89.83813499984397,43.20605700017184],[-89.83816699963103,42.85739699981408],[-89.36906899956044,42.85647100016291],[-89.36912800000998,42.845036000197155],[-89.05553599962234,42.847520000181255]]]},"properties":{"NAME":"Dane County","GEOID":"55025"}},{"type":"Feature","geometry":{"type":"Polygon","coordinates":[[[-89.67229399959827,45.55570300023499],[-90.04341400028817,45.55508199992466],[-90.04368499955152,45.12021400008654],[-89.4259709998738,45.11909800023967],[-89.42428299987792,45.38016899988525],[-89.42825800009439,45.55535299986579],[-89.67229399959827,45.55570300023499]]]},"properties":{"NAME":"Lincoln County","GEOID":"55069"}},{"type":"Feature","geometry":{"type":"Polygon","coordinates":[[[-89.95843399963792,43.86195300022325],[-89.96361599962631,43.86895699980637],[-89.96294799980463,43.88339899983256],[-89.98416700002792,43.910892999775825],[-89.97939299957021,43.918692999819264],[-89.95906399982475,43.920130999940476],[-89.95119999960556,43.92658700011888],[-89.95611800000333,43.93884400025322],[-89.95526799970844,43.95529200030064],[-89.96257000041115,43.96463500009035],[-89.96356499957268,43.983694999798594],[-89.9742950001457,43.996060000051045],[-90.00588699966832,44.008390999782755],[-89.99846900041128,44.022551000123066],[-90.01813500035792,44.046031999872426],[-90.02627200038859,44.089593000191066],[-90.01752699991238,44.10028700019695],[-90.00404300003683,44.10334799988775],[-90.01046199993442,44.11354199986217],[-90.00856999972405,44.120626000210635],[-89.99308999988106,44.126957999920435],[-89.98574600024385,44.122095999775276],[-89.97572899969836,44.12391499981333],[-89.97500899999815,44.12776500008624],[-89.98469500010754,44.129251000306645],[-89.97377299991389,44.13457000024137],[-89.97048200031094,44.16711399968202],[-89.9417129996878,44.16343400004018],[-89.93675800037843,44.15299599980128],[-89.92868400009695,44.15030399978014],[-89.9228230004162,44.154501000080955],[-89.92403799968575,44.17747399985821],[-89.9028140003379,44.17868200009031],[-89.90359500013747,44.19143399993186],[-89.92702200004032,44.193674000000456],[-89.90501299979661,44.20160399971326],[-89.92483299972905,44.21353299986986],[-89.90798799993037,44.2205549997023],[-89.90810199973319,44.228888999723665],[-89.89764300022013,44.228110000225236],[-89.90278300037573,44.249473000048056],[-90.31268000021683,44.24875000023555],[-90.3124040000323,43.6409880000966],[-89.78490099960045,43.64105099976259],[-89.78927300037526,43.64545099982315],[-89.78701999959154,43.667148999864715],[-89.80781299984247,43.677313000076],[-89.82279700029123,43.697894000077866],[-89.84104100038077,43.735951000098304],[-89.84290500010374,43.757480000085664],[-89.850724999942,43.76902100022046],[-89.86551100002404,43.783700000210985],[-89.89361199992716,43.79974500024485],[-89.90283899955394,43.81408600020235],[-89.91338099980598,43.81799300023093],[-89.92230799985707,43.83846800030867],[-89.95843399963792,43.86195300022325]]]},"properties":{"NAME":"Juneau County","GEOID":"55057"}},{"type":"Feature","geometry":{"type":"Polygon","coordinates":[[[-89.96401300018466,44.6848289996968],[-90.31625299985207,44.68515400031543],[-90.31803200008456,44.24870799972502],[-89.7247460002173,44.24767800006423],[-89.726724999568,44.511191999938745],[-89.84454600024395,44.51150299989549],[-89.84493100020842,44.68494500025069],[-89.96401300018466,44.6848289996968]]]},"properties":{"NAME":"Wood County","GEOID":"55141"}},{"type":"Feature","geometry":{"type":"Polygon","coordinates":[[[-90.31504799972996,44.89876100025903],[-90.31503799968421,45.03382899981522],[-90.92336200042688,45.03114299972308],[-90.92288899970055,44.50984000016337],[-90.8015250004249,44.50968099978621],[-90.801917999887,44.4224420002228],[-90.31605500038368,44.42450199997367],[-90.31504799972996,44.89876100025903]]]},"properties":{"NAME":"Clark County","GEOID":"55019"}},{"type":"Feature","geometry":{"type":"Polygon","coordinates":[[[-91.04888699969183,45.29201399981849],[-90.92522199995189,45.292060999868994],[-90.92534300032571,45.37935000014104],[-90.67877299983073,45.37790699973169],[-90.67874900043958,45.63826399994511],[-91.54029399958179,45.63760500016699],[-91.5413220001519,45.292219999818286],[-91.04888699969183,45.29201399981849]]]},"properties":{"NAME":"Rusk County","GEOID":"55107"}},{"type":"Feature","geometry":{"type":"Polygon","coordinates":[[[-88.0672519999739,43.016399000261124],[-88.06335299992544,43.19211699979515],[-88.53584299988128,43.19604800016417],[-88.54153500040594,42.84299599987585],[-88.06992400015899,42.84332299993456],[-88.0672519999739,43.016399000261124]]]},"properties":{"NAME":"Waukesha County","GEOID":"55133"}}]}