{"type":"FeatureCollection","features":[{"type":"Feature","properties":{"name":"world-minus-wi"},"geometry":{"type":"Polygon","coordinates":[[[-180,-85],[180,-85],[180,85],[-180,85],[-180,-85]],[[-90.63582899994415,42.517927999713635],[-90.64468700039828,42.54131699991232],[-90.65412699956204,42.54989999995724],[-90.66152700017406,42.56799899980691],[-90.68697500015872,42.591774000168925],[-90.6939990001288,42.61450900014062],[-90.70920399961216,42.636078000316175],[-90.8874299999165,42.672470000312394],[-90.9211549996739,42.685406000187925],[-90.94921000044462,42.685569000321074],[-90.97773499977198,42.69681599996949],[-91.00012800015526,42.71618899976297],[-91.02678600028491,42.724227999887084],[-91.03541799988493,42.73733999992793],[-91.05373300011956,42.738238000322234],[-91.05629700034957,42.74734099984299],[-91.06578300044242,42.75338699995389],[-91.0602609997971,42.761846999680664],[-91.06954900042152,42.76962800011304],[-91.07866499972019,42.82767799993532],[-91.09406000007267,42.830812999805794],[-91.09140200013132,42.849859999989604],[-91.09765600017246,42.859871000136536],[-91.10056500018396,42.883078000216855],[-91.11741099980755,42.89583700028688],[-91.14561499964286,42.90800600013706],[-91.14380000032368,42.92287700029582],[-91.14988000028754,42.941954999918906],[-91.14542999969493,42.95821100024359],[-91.15689300038697,42.980815000176925],[-91.15681200019611,42.988169999800704],[-91.17469200023757,43.03871300017636],[-91.17945699957613,43.06742700031004],[-91.1770029998493,43.131846000123495],[-91.14619999962386,43.15240499967719],[-91.12217000019666,43.19725500023596],[-91.06639799966236,43.23929300005809],[-91.05791800039832,43.25536600002259],[-91.07264900022875,43.26212900001983],[-91.07371000041083,43.274746000095476],[-91.10723699980153,43.313644999901754],[-91.13281299983271,43.328030000224395],[-91.20662000021919,43.35252399974826],[-91.21506199984837,43.36710500010247],[-91.2060720000481,43.37497599996412],[-91.19766999970356,43.39533399987053],[-91.20554999981627,43.42294899971243],[-91.2333670000373,43.45516799988607],[-91.2152819999564,43.48479799974104],[-91.21735300026693,43.51247399983535],[-91.23294100006494,43.523966999890504],[-91.24409300041235,43.54562000023036],[-91.23281200019352,43.564841999729346],[-91.23186499981425,43.58182200017388],[-91.26874800000354,43.61534800010485],[-91.26239699987802,43.641760000023744],[-91.27174900007658,43.654928999882905],[-91.27325200012451,43.66662299993697],[-91.26845500010059,43.70982400003118],[-91.25783900022871,43.72566099990848],[-91.24413500024514,43.77466699974752],[-91.26243299986304,43.7921699996905],[-91.27769500014612,43.837740999785034],[-91.31099099955814,43.86738100023668],[-91.32060499969752,43.88849099987297],[-91.33814099978241,43.89766400012972],[-91.34774099967805,43.911964000016894],[-91.3574250001376,43.91723099979557],[-91.36664199971861,43.937462999702596],[-91.38579800002732,43.95424099976805],[-91.40601100032013,43.963929000183306],[-91.42518799964691,43.98432200010472],[-91.43411100039836,43.99786799974006],[-91.46351500033292,44.009040999930086],[-91.48086999976954,44.00814500025253],[-91.50712100019341,44.01898000006348],[-91.55900399982664,44.02531500004808],[-91.59206999998321,44.0313719999982],[-91.61048700032512,44.04931000029134],[-91.64787299958134,44.06410900003621],[-91.68152999956669,44.09740000023129],[-91.70749099956234,44.10390599981942],[-91.71059700011568,44.12048000012863],[-91.72155199992129,44.130341999930366],[-91.75174699970117,44.13478599999397],[-91.8080640000335,44.1592620000754],[-91.82916699990585,44.17834999987519],[-91.8751579998962,44.200575000013394],[-91.87742900022327,44.21292100027039],[-91.89269800017904,44.231105000232596],[-91.88703999998958,44.25177200017315],[-91.89600800004855,44.26287099985447],[-91.89638799999017,44.27468999996861],[-91.92461299974187,44.29181500021648],[-91.9135340000877,44.311391999723185],[-91.92559000025835,44.33354800002757],[-91.94131100012575,44.34097799972629],[-91.97026599962341,44.36584200018745],[-92.02253300029453,44.3823180000747],[-92.05485399973821,44.402099000286654],[-92.07860500040447,44.404869000161696],[-92.083322176697,44.40953676895553],[-92.08357200030773,44.407335999880665],[-92.1123080004206,44.4143319998581],[-92.12451299965585,44.42211499982602],[-92.19537800041884,44.43379200031891],[-92.23085599957115,44.444496000023435],[-92.2910050000048,44.48546400023262],[-92.30221500007852,44.50029800011322],[-92.30304600010683,44.518645999697235],[-92.31616900030734,44.541008999774974],[-92.3326759999972,44.552574000293234],[-92.35731300004504,44.5584799996945],[-92.41567499985032,44.560506000000096],[-92.43862599955212,44.5526390000174],[-92.45889599974632,44.56274499998621],[-92.4809860001809,44.56844899984663],[-92.49371699984593,44.566052000066385],[-92.5187000003985,44.57522799994873],[-92.54676799979137,44.567374999997575],[-92.55146000023332,44.57147200022273],[-92.55039999987615,44.582055000126],[-92.56894600008948,44.6033719998859],[-92.57715599991509,44.60503700007851],[-92.58621600003559,44.60008800003348],[-92.601608000015,44.612038000233504],[-92.62164200020769,44.614929000208015],[-92.62021500032772,44.63419400004061],[-92.6320210002531,44.649186999955084],[-92.66098800034467,44.66089999997222],[-92.73204300018013,44.71434499999391],[-92.79233599965552,44.73936200002839],[-92.8084149997232,44.75160399979811],[-92.80444500042792,44.770759999957725],[-92.78562200020517,44.7918869999466],[-92.78075400003611,44.812299999950696],[-92.76593199996908,44.835630999856804],[-92.76950100030469,44.86200100013429],[-92.76341100029508,44.87414000004994],[-92.77457100014009,44.89808399990537],[-92.75870100030977,44.90897899994505],[-92.75064499957165,44.93729899998399],[-92.75460300006965,44.95576699975117],[-92.76944500022819,44.972149999761854],[-92.77123100013335,45.00137800001128],[-92.76205999968478,45.02432000022205],[-92.79558600014889,45.04924399990372],[-92.80312399995485,45.062573000286164],[-92.79265700004589,45.07876200030795],[-92.73958299963591,45.11559799997733],[-92.75219600019848,45.142494999761894],[-92.74905500038336,45.14866600020957],[-92.75240399971261,45.173915999795895],[-92.76680800020323,45.18546600018004],[-92.76390800041253,45.2048659999631],[-92.75800800037374,45.20956600007934],[-92.75170800030183,45.21866600001898],[-92.76026399973387,45.25171700025237],[-92.75192000001394,45.26587700021159],[-92.76200399960828,45.28821299995284],[-92.73712100041146,45.30045900018445],[-92.7086749998285,45.32252499993609],[-92.69896699997781,45.33637400018176],[-92.70272299991116,45.35846800023376],[-92.67918700022835,45.37270999991087],[-92.66410400004541,45.39330800017305],[-92.65042000015333,45.39850999984103],[-92.64660200029572,45.44163500021831],[-92.65354900027289,45.455346000007324],[-92.68023400016672,45.464343999753254],[-92.71286299958199,45.50484899980765],[-92.7266770000687,45.51446199991597],[-92.72608200004194,45.54111199986002],[-92.77022299965472,45.56693900008903],[-92.82330899976026,45.56093400004966],[-92.87108200035615,45.567580999775316],[-92.88374900044705,45.57548299996591],[-92.88706699981418,45.64414800024299],[-92.87014500002262,45.6967569997031],[-92.8691929996205,45.71756799979607],[-92.80983699958028,45.744172000141106],[-92.78461700009957,45.76419899975649],[-92.77648199971873,45.790003999828905],[-92.75781500002988,45.80657399991358],[-92.7651460001466,45.83018300012579],[-92.73999100006492,45.84628299994091],[-92.73822000022837,45.86203099988928],[-92.71250299973185,45.89170499968864],[-92.6773519999194,45.90581799969988],[-92.67616699988875,45.91207200001791],[-92.65954899987081,45.922937000227435],[-92.63911999966793,45.92455800014451],[-92.63882400029024,45.93416599989237],[-92.61431399956568,45.934528999887995],[-92.55193300006134,45.95165099979701],[-92.54980599967432,45.96798600019629],[-92.52705199961602,45.983245000140705],[-92.47276100028668,45.97295199974585],[-92.46158399982491,45.9788939999129],[-92.46448600016373,45.98332400025018],[-92.45337300017438,45.99291300023007],[-92.44225900036012,46.01617699984269],[-92.42069600018026,46.02676900020246],[-92.41001400018612,46.02725099975979],[-92.37130699955851,46.0139509999581],[-92.35040700007576,46.01636799990797],[-92.33291199999876,46.06269700016009],[-92.294032999842,46.07437700003594],[-92.29370499977897,46.15732099975986],[-92.29128899968694,46.66813700026488],[-92.27059199969545,46.650741000299746],[-92.25659200033422,46.65874099993269],[-92.24249300034045,46.64924099984774],[-92.2070920002827,46.651941000061356],[-92.20159200027699,46.65664099998668],[-92.20409200003459,46.666941000088144],[-92.17587499978049,46.68646599991195],[-92.182999000208,46.695651999937134],[-92.2051919996764,46.698340999773045],[-92.2046910002593,46.704040999991335],[-92.18909099986742,46.71754099994455],[-92.16729099986108,46.71994100006151],[-92.14673000031202,46.71579400015771],[-92.14152200038436,46.725285000286775],[-92.14328999984785,46.73464000011765],[-92.1165899998854,46.74863999973305],[-92.08949300026293,46.749236999905385],[-92.03398900041556,46.70893900017788],[-92.02029399975451,46.704040999991335],[-91.98134099997795,46.72309100017288],[-91.54938499966441,46.89321299980584],[-90.867317999906,47.210961999899595],[-90.65465999966452,47.30982200019525],[-89.9571020001925,47.29110300025223],[-90.00014499981327,47.21496900020089],[-90.26962199962914,46.79818200028604],[-90.41839200012036,46.566099000200886],[-90.4150439997177,46.557672999709936],[-90.39221600003957,46.536047999901484],[-90.39326200015302,46.53243300011486],[-90.36822900027005,46.54113200007919],[-90.35068399996435,46.5403249999909],[-90.34722699978172,46.54898799978649],[-90.34028400000253,46.54823800018031],[-90.34424099977733,46.5518030000303],[-90.3366209999556,46.55412099977136],[-90.3275829995764,46.55161000029656],[-90.32673099963169,46.54607099978624],[-90.31547700007536,46.54469700014519],[-90.31615999996566,46.54050399995997],[-90.30944099959412,46.53728499990318],[-90.31655400015096,46.51689599992806],[-90.29458900028817,46.521659999923905],[-90.28446399978765,46.51871500018894],[-90.27694000022538,46.52444700021029],[-90.27179599987181,46.51926500010745],[-90.27762300011568,46.51481000023606],[-90.27044099996188,46.51168300013092],[-90.27255099973213,46.5045119998336],[-90.26656700002775,46.50785500000962],[-90.26154800024595,46.502561999741765],[-90.23097000015142,46.509841999697805],[-90.23091800027288,46.501528999911606],[-90.21663699980593,46.5016370000446],[-90.20421199956434,46.47830899981378],[-90.18887300018667,46.4689799997468],[-90.1936069995631,46.46328499991388],[-90.18805100037922,46.45826900011853],[-90.17832500008684,46.45740799984456],[-90.1783500002012,46.44046499984289],[-90.16765899998626,46.44204000012498],[-90.15729800038248,46.42112199994373],[-90.158368999712,46.40945399996268],[-90.13217699973767,46.381119999764145],[-90.13398600010736,46.37178900026254],[-90.11870299990788,46.35934500030827],[-90.11685199970539,46.35065100021513],[-90.12365100044286,46.346264999918894],[-90.11798400003256,46.34150499969934],[-90.12143000034452,46.33742499976865],[-89.92915799974986,46.29974799984219],[-89.55481500012739,46.227902999750214],[-89.09163800001203,46.13844699999744],[-88.93275700016227,46.073667999711404],[-88.85082199996597,46.04031200000746],[-88.83909100038365,46.02997600001237],[-88.81908399995517,46.02631400001603],[-88.81602599998072,46.020585999958406],[-88.7964599995932,46.02360599996688],[-88.8006699999863,46.03003600025845],[-88.79649700030143,46.03365800021833],[-88.78929199968309,46.02845500011909],[-88.77873899956039,46.031690000084744],[-88.78393999981537,46.02384399977297],[-88.78015600029293,46.015394999946544],[-88.76980099963863,46.018943999936056],[-88.77062099979628,46.02556099991459],[-88.75896800003176,46.01963300028837],[-88.73897999986985,46.02745900015203],[-88.7212610003852,46.02222099990837],[-88.71831399984052,46.01318200005619],[-88.7037110000566,46.0182930001132],[-88.68331199999095,46.01411299995952],[-88.6754510001448,46.01157600020966],[-88.6711649995837,45.99907200029357],[-88.66354499976197,45.99284300026395],[-88.67082700037322,45.98854700003789],[-88.63585300011275,45.98508000013728],[-88.61368300021054,45.98928099970046],[-88.61271200044015,46.004461999888036],[-88.60117799960301,46.01776999975716],[-88.59354799973553,46.0147699999525],[-88.58827000038596,46.00509800018854],[-88.56566299974246,46.015679000045246],[-88.54915100002972,46.01288399981555],[-88.53943200030838,46.014470000066574],[-88.53368600025536,46.021149999945386],[-88.51469200032837,46.020018999995465],[-88.50636399960368,46.01760999984213],[-88.49797800005096,45.9957939998476],[-88.48935499977348,45.991367000209806],[-88.475205999551,45.99312899969222],[-88.47077199975023,46.00099800001068],[-88.45867200009697,45.99951400026377],[-88.45003700012391,45.99011200007033],[-88.43476200032033,45.9883399998429],[-88.41638099996347,45.9750919997559],[-88.38864400010839,45.98262300017669],[-88.38050299987974,45.99176499984076],[-88.33027800010515,45.96583500016157],[-88.3272760002072,45.9549570000979],[-88.32030800031364,45.96365699984248],[-88.29384900037562,45.95094100025925],[-88.24689400028755,45.96353200028128],[-88.2448330000228,45.952863999896536],[-88.23710600007094,45.948278000159654],[-88.20990399996815,45.94422100024619],[-88.19205800026188,45.95265099984359],[-88.17008900020113,45.9394919998019],[-88.147650999612,45.93742700001932],[-88.12680800003065,45.925993999895454],[-88.12665400004487,45.92179099990445],[-88.10246100041104,45.921546000240824],[-88.09492699990471,45.91532300016048],[-88.10662400005016,45.902212999945746],[-88.10126399978653,45.88228199995993],[-88.08181999959774,45.8802009998346],[-88.06976299960218,45.87293800028084],[-88.07583800044148,45.869630000284324],[-88.07482800031303,45.86490500029188],[-88.0824649998532,45.86496100022488],[-88.13621200010773,45.81873499991853],[-88.12956999972909,45.809316999718625],[-88.10760800023935,45.80303999979519],[-88.1032129998983,45.791254999724856],[-88.09475399965235,45.78575499995652],[-88.0582529999528,45.780628999957116],[-88.0417439997148,45.783734000263145],[-88.03972799965587,45.789626000028015],[-87.99144699997018,45.795393000120214],[-87.98086999955804,45.77697699972485],[-87.98965600004213,45.772024999819756],[-87.97266200028056,45.76635200007482],[-87.95927700013925,45.757367000180984],[-87.90665999966374,45.759524000086664],[-87.89836299979952,45.752502999930975],[-87.87580000043523,45.75389399993939],[-87.86221100007941,45.745018000147766],[-87.86432000002478,45.7371389999014],[-87.8554800000123,45.72694299970459],[-87.8373449997027,45.71691799984065],[-87.81014400032315,45.71022999973078],[-87.80508100016044,45.70497399992166],[-87.80907499974518,45.69971700021143],[-87.78080800016065,45.68034899994598],[-87.78162300029544,45.67328000025853],[-87.82419100043839,45.66204399972286],[-87.8246779996118,45.653211999824364],[-87.82410299967653,45.647138999964696],[-87.81019500037678,45.638732000041024],[-87.79587999957465,45.618845999921376],[-87.7808449999706,45.614599000008404],[-87.77468200016605,45.602024000201084],[-87.77719899964208,45.588498000198506],[-87.7867659999258,45.58282800031184],[-87.79237200023672,45.56305500003462],[-87.82934800031244,45.56877699983779],[-87.8336900000517,45.5615559998698],[-87.8033899997915,45.53827199977372],[-87.8022409997459,45.51305899992925],[-87.79276899989675,45.4999670000331],[-87.81297600034178,45.464159999925776],[-87.83121700005826,45.45718499994009],[-87.86169700024352,45.43447300008133],[-87.84932200023064,45.40387199975319],[-87.85913100036366,45.39896700011047],[-87.85941800041884,45.3882270001685],[-87.87542399979328,45.37937300018177],[-87.87148499956182,45.37154600012985],[-87.88485499963454,45.36279199974124],[-87.88761499968315,45.35382000005153],[-87.88111399976981,45.351277999888545],[-87.87036700037666,45.356267000218224],[-87.87585899998646,45.36475999983132],[-87.87166299983707,45.36656499969977],[-87.86576399962317,45.36288500004837],[-87.86348899999648,45.353020000259406],[-87.8504179996745,45.34749200014474],[-87.85013300016745,45.34043499993416],[-87.83261200015119,45.3522489999908],[-87.75410400000025,45.34944200003131],[-87.69979699987907,45.38792699971931],[-87.69028099964902,45.389822000014014],[-87.67501699971609,45.38245399982242],[-87.67351299984324,45.376945999767386],[-87.65735000010996,45.368754000076315],[-87.65644700011164,45.35841300026311],[-87.64772900029791,45.35072099995486],[-87.64796500029946,45.33982300028509],[-87.66160300016077,45.327607999765014],[-87.66171100011582,45.32073600017289],[-87.67188900031978,45.30810600014464],[-87.6874989998591,45.2980550001359],[-87.69824799980037,45.281511999802],[-87.69878000007793,45.26941999989074],[-87.7104499995609,45.259323999974],[-87.71133900021383,45.23996500019021],[-87.72499200014376,45.23213999997451],[-87.72135400021119,45.22684699988598],[-87.72695200012619,45.21894900014874],[-87.72619800009079,45.209390999757474],[-87.74173200036043,45.19820100008516],[-87.73610400030819,45.17224400006404],[-87.6839019999344,45.144134999969786],[-87.65995199997481,45.10751200031465],[-87.63153499970417,45.106223999710835],[-87.59187999977073,45.094689000153096],[-87.58538800007821,45.096924999941066],[-87.44333549331007,45.07655353025916],[-87.40569399988604,45.201969000084915],[-87.31542199964251,45.24065699987353],[-87.17117000041426,45.352540000132414],[-87.10113300020484,45.44423000019731],[-86.75423600018432,45.44360999972072],[-86.2495479999101,45.23612499994635],[-86.50010600014204,45.08062100024119],[-86.68628799982876,44.88100200000284],[-86.778397999856,44.675218999944946],[-86.85518399967587,44.5003389998039],[-86.8476940004488,44.5003389998039],[-86.92340300019306,44.328824999936984],[-87.01323400039563,44.13190499978231],[-87.07533500041582,43.89477399989835],[-87.11410200041956,43.73411099992129],[-87.12507899996648,43.670445000246986],[-87.13477799959634,43.541433000223144],[-87.14716600002801,43.379859000140605],[-87.11900800022343,43.19081599975808],[-87.06941899958517,42.842145999895095],[-87.04389899963049,42.66372900029768],[-87.01986300035549,42.4937630000481],[-88.30469200002821,42.49461799990527],[-88.77659000033037,42.4919129997632],[-89.365798000049,42.50007799976698],[-89.83758699967288,42.50571000006724],[-90.42637799963998,42.507076000074036],[-90.42637816587273,42.50717300689439],[-90.64284299986848,42.508481000028475],[-90.63582899994415,42.517927999713635]]]}}]}