{"type":"FeatureCollection","features":[{"type":"Feature","properties":{"NAME":"Wisconsin \u2014 Statewide","name":"Wisconsin"},"geometry":{"type":"MultiPolygon","coordinates":[[[[-86.83394715991957,45.403016974739685],[-86.8292081189057,45.40846547639551],[-86.83010049976247,45.42802482483754],[-86.80974009063978,45.422071954558895],[-86.80566996965008,45.40693296815598],[-86.83394715991957,45.403016974739685]]],[[[-86.95674394921349,45.34782125514103],[-86.95560064849131,45.35694441058445],[-86.95298725155234,45.35279228253525],[-86.94943031342869,45.35252025107303],[-86.94771648640388,45.35369675670045],[-86.94801277431539,45.35580960547315],[-86.94450635763964,45.357640486627105],[-86.95504857225936,45.38390903513171],[-86.94278388286976,45.41565848440068],[-86.93646323949062,45.420950883722014],[-86.92749757215998,45.410732156172145],[-86.92839681858402,45.4001971998197],[-86.92688616658128,45.39828668169739],[-86.92301712590125,45.39840018400354],[-86.91552985598234,45.40773403137962],[-86.87735686846429,45.413687957044054],[-86.86066611308532,45.411731257856374],[-86.83757483614177,45.39401731545888],[-86.8487535507138,45.370435637047805],[-86.8642844368035,45.36354984787448],[-86.86935580817615,45.34989983153313],[-86.86521292263542,45.339022545979034],[-86.87176999453538,45.331914031656964],[-86.8802784490951,45.33119121976291],[-86.89138686150672,45.338037715008966],[-86.90303021941904,45.334144856925654],[-86.92056434879383,45.35419285343884],[-86.93352757213212,45.35123804311551],[-86.93441205740564,45.34383847455887],[-86.93646394669311,45.34417313943527],[-86.93777914111442,45.34259996974737],[-86.93615828894548,45.33783283381846],[-86.9408105358518,45.33374289594448],[-86.95394790032351,45.33958391689541],[-86.95674394921349,45.34782125514103]]],[[[-86.93389520255478,45.336264251253716],[-86.93091504745671,45.33933677294438],[-86.93035729315058,45.33371059604048],[-86.92344618479476,45.331290214705355],[-86.91859538817279,45.336304875337376],[-86.90896731277383,45.31693881910018],[-86.89891348818782,45.30897965599693],[-86.89773542603344,45.29494493412368],[-86.9046481527876,45.29687752105331],[-86.90179478639199,45.299792155629554],[-86.9074016900411,45.312152522403544],[-86.91829584990118,45.31709464035452],[-86.93389520255478,45.336264251253716]]],[[[-86.9605442559421,45.31121451298945],[-86.95634537689544,45.31495752218975],[-86.947675918029,45.312880901038476],[-86.9440931077686,45.302242524764765],[-86.95653756576952,45.30372410015021],[-86.9605442559421,45.31121451298945]]],[[[-92.88943081913516,45.641201874541586],[-92.8701860215246,45.696667011939454],[-92.86919062691568,45.71756638498381],[-92.80991717282919,45.74414365690857],[-92.78481267823393,45.76409355828254],[-92.7764795004092,45.79000237976036],[-92.75818113794323,45.806676073388104],[-92.76514314210374,45.830181956238185],[-92.74034868999273,45.84615767491228],[-92.73821762044177,45.862029956961464],[-92.71250166685472,45.89170312973224],[-92.67801357669609,45.905595488387114],[-92.67616476169495,45.91207050303187],[-92.65954817604359,45.922934588107346],[-92.63999116726,45.92472206659967],[-92.63882189057195,45.93416385616994],[-92.61423303062448,45.93455859857157],[-92.55285050059074,45.95143870620569],[-92.54980395773626,45.967984734814024],[-92.52705150086551,45.983242679517154],[-92.46943963477442,45.97382197680029],[-92.46250388823219,45.978468681134075],[-92.46450896149751,45.98503720702246],[-92.45336033587739,45.99303561412516],[-92.44225714325036,46.01617529629347],[-92.42855385672591,46.02423797886288],[-92.41189618561559,46.02747525747328],[-92.37290747869287,46.01427299018554],[-92.35241618250203,46.01573103302864],[-92.33291017916697,46.06269500869638],[-92.29426732012256,46.07491786588871],[-92.29218958387384,46.66604014571714],[-92.28739382356123,46.667340144099114],[-92.28576746727467,46.66047354038083],[-92.27439366557208,46.65743879957391],[-92.27017954184164,46.6515016221752],[-92.25659210802611,46.65873808211663],[-92.24218149581692,46.64930129383434],[-92.20713163678565,46.65203698268509],[-92.20185173416735,46.657039617864484],[-92.20408924068218,46.66693994982893],[-92.17678971308051,46.68651029442008],[-92.18325789567733,46.69559547963489],[-92.20518961191443,46.698342935705206],[-92.20468899190894,46.70404001442237],[-92.1915273793914,46.71620737674833],[-92.16729104570942,46.71993906200139],[-92.14645387905125,46.71599782280288],[-92.13541230681456,46.723029539036006],[-92.13953519831423,46.730119018788145],[-92.14332560008674,46.73159390689548],[-92.12791738551353,46.73140486244419],[-92.1246935061234,46.739865016524796],[-92.11131085800322,46.74382201966246],[-92.10887233945246,46.74223056580601],[-92.10642501365373,46.74514129569938],[-92.10546186705622,46.74095111670426],[-92.10300163391872,46.74022363577575],[-92.10029991871417,46.74416464849145],[-92.10113477900406,46.74905450222101],[-92.0769388071416,46.734887961181265],[-92.07661783633621,46.73126820006657],[-92.07135826029078,46.73096268835099],[-92.06913534892901,46.729091514021114],[-92.06982200463244,46.72505237937273],[-92.06411809770304,46.72096732178919],[-92.04943484714916,46.71494088193985],[-92.05146552053058,46.713414423087805],[-92.05035684733024,46.71108692044466],[-92.04524226524524,46.71249657357745],[-92.04505774719468,46.70933994894548],[-92.03924887931475,46.70842995156534],[-92.03038115132145,46.70192936523219],[-92.02375334998989,46.702464139239964],[-92.02262732100647,46.69374236215822],[-92.01867572928364,46.69389051251108],[-92.018247487629,46.70055086766313],[-92.01611738042469,46.69521546828672],[-92.01386287734826,46.695271469508384],[-92.01293696041198,46.69737593477484],[-92.01437684654621,46.684505853800395],[-92.00416111733367,46.68174041427499],[-91.98998632607689,46.68406500137176],[-91.98985532530061,46.68040492696702],[-91.98326945153958,46.680304634734476],[-91.97693744547081,46.683444374953595],[-91.97603053093783,46.68528339757182],[-91.97721912796922,46.68695424623566],[-92.0169831954631,46.70444021498251],[-92.00643377448385,46.71025353115808],[-92.00744105502665,46.70559787833605],[-91.98821809379334,46.69354849433754],[-91.94806013787488,46.68011415549795],[-91.86652445621701,46.6920492706143],[-91.83893598487153,46.6894566416547],[-91.79664352730038,46.69332228983367],[-91.72959856770059,46.71511481912694],[-91.64775620347459,46.73406640052312],[-91.58942652918674,46.75451950347156],[-91.51196902867102,46.75729224060751],[-91.49276131887109,46.76655389764733],[-91.43939004126872,46.77588929973021],[-91.40781263801365,46.794826142837586],[-91.3886766536397,46.789184134379106],[-91.36997442324618,46.79356532161761],[-91.33822786678525,46.817817203787364],[-91.31380598100749,46.82753172554837],[-91.25726773416038,46.83670869854981],[-91.23208486411521,46.86080506809564],[-91.2048412711359,46.869176292304886],[-91.18707015143997,46.886351499610974],[-91.18091353783338,46.885627990701444],[-91.18150007429526,46.880521392058654],[-91.1937236416475,46.87374888402857],[-91.20403560058423,46.86037224751789],[-91.19116715231053,46.8488390857117],[-91.15079957487939,46.856989609373635],[-91.13921216373828,46.87337028730837],[-91.1337904216485,46.871249583575576],[-91.13519938579023,46.86114475027996],[-91.13409271789914,46.85926718135204],[-91.10744144065936,46.85717662657835],[-91.09724235029162,46.86165106429367],[-91.09125534531202,46.882869400989485],[-91.06514952168708,46.87853410631276],[-91.04993143997892,46.88315390646798],[-91.03827119452944,46.891786587528074],[-91.03481522656611,46.903257343637286],[-90.99564539629266,46.917551818273104],[-90.97147128292028,46.94289464276439],[-90.92069392873118,46.931689863196446],[-90.90817103420319,46.94153424721881],[-90.88320647269312,46.950048829755325],[-90.87963815070975,46.958244738566876],[-90.85598915949163,46.96240063372743],[-90.83287682386548,46.95503390616661],[-90.8284913262895,46.94586473311141],[-90.83020911726159,46.936500851544864],[-90.82499422045126,46.93312665466362],[-90.81394711749779,46.93161089158073],[-90.80336069866384,46.9381602922272],[-90.7927984526029,46.93442301965165],[-90.78358017165905,46.92216618272901],[-90.78239893666577,46.911170962317904],[-90.76181019775021,46.90463996363482],[-90.75142816532605,46.894526034273795],[-90.75114542174093,46.88760132827369],[-90.75836558303028,46.88340556573665],[-90.77450554455473,46.88397485181153],[-90.77494435876625,46.88182935372695],[-90.77023993637253,46.87442821078723],[-90.78825803715041,46.85358016473045],[-90.7850765389633,46.84227938181499],[-90.79827758664507,46.82424240272741],[-90.81150290493069,46.813863457774964],[-90.81256509554775,46.80800678856044],[-90.82551967390243,46.80404037953439],[-90.83576236405825,46.789622542990244],[-90.85721276287906,46.78854263272016],[-90.86321083533355,46.780751999185995],[-90.8592899012523,46.77386983681534],[-90.86236777544602,46.76821881493754],[-90.88424040753316,46.756653223885415],[-90.87437666453097,46.72997479495326],[-90.85298916550309,46.70010343923952],[-90.85375913598496,46.693451305822634],[-90.88098925028666,46.67526404424679],[-90.88391679769083,46.66766115982471],[-90.91103864486792,46.66307302551197],[-90.92128958745226,46.62830640839938],[-90.93850992307402,46.608438317915414],[-90.95084163634024,46.60073026461074],[-90.9440759711814,46.58771222274941],[-90.90714791160087,46.583322946538786],[-90.9031608564709,46.58859322788274],[-90.89740061020241,46.587381013626725],[-90.89481895180462,46.588699364201375],[-90.89411667487892,46.590582868164155],[-90.89546449266837,46.59252403826389],[-90.88988654087755,46.591041504641446],[-90.88765151673016,46.59196985881906],[-90.88684896424236,46.59383207996841],[-90.88829377699018,46.59584788537567],[-90.88024911584611,46.59867091047746],[-90.88248915126397,46.60307227153957],[-90.87875656821747,46.60032784928258],[-90.87686825320792,46.6012085185345],[-90.87618712532729,46.603937165382405],[-90.86648699358462,46.60208304800306],[-90.82477239129615,46.61916001547606],[-90.79267287267662,46.62593110409482],[-90.74149626886977,46.6539099741555],[-90.74102580365522,46.65593164231153],[-90.74337998658598,46.660172206280826],[-90.73905086358499,46.66115331541206],[-90.74019541562309,46.66427557129411],[-90.76369316301405,46.659976561492144],[-90.75410806819615,46.66903850034391],[-90.70520620236765,46.66600747235237],[-90.70527188832965,46.66945066200786],[-90.7581784069445,46.70525175103924],[-90.62969994339603,46.624971580498155],[-90.55164114572223,46.5841424198344],[-90.53687449394847,46.58119535205462],[-90.50572016119857,46.58971361226593],[-90.43982567055379,46.56165767829898],[-90.41839349593286,46.56609618356564],[-90.41487291967121,46.55752715315011],[-90.39057322130041,46.53361224525552],[-90.36822867197706,46.54112973989401],[-90.35127480988001,46.54051306974675],[-90.34680447900816,46.54934766975225],[-90.34354271292504,46.55020074570625],[-90.34352879613037,46.55245305106908],[-90.33223069078727,46.55342945490671],[-90.30944383128784,46.537284094868426],[-90.31543300578564,46.520081094488155],[-90.31437964173874,46.51781581689893],[-90.29458908764704,46.5216574859958],[-90.2845078863875,46.518950833333506],[-90.27694020327999,46.52444406311764],[-90.27179957773492,46.51926524437719],[-90.27570192290212,46.51514334336978],[-90.27044369669207,46.51168174044827],[-90.27089868480586,46.50751604504002],[-90.26656747473002,46.50785188543063],[-90.26155051309073,46.50288685589202],[-90.23097233162,46.50983902893359],[-90.22986071718536,46.50177354513168],[-90.21663842360799,46.5016346080825],[-90.20422974222849,46.478439349100555],[-90.18887631234684,46.46897946192712],[-90.19293379128237,46.46394768502803],[-90.19126376559288,46.46041164124122],[-90.17849434477972,46.457642015778426],[-90.1779004596275,46.441416993942546],[-90.16742148080804,46.4417022912544],[-90.15730010988132,46.42112161007756],[-90.15799051469325,46.40909546225623],[-90.13217931642001,46.381119340309105],[-90.13343827265254,46.37133729065481],[-90.1172591403431,46.35628208416683],[-90.11735932869003,46.34959844590718],[-90.12207954797647,46.345992209442734],[-90.11798718741662,46.341504746984555],[-90.11969540385535,46.33894797730927],[-90.11828361052014,46.33681841924617],[-89.09168629734121,46.1384563017544],[-88.85087376496274,46.04033309477673],[-88.83921658450885,46.03012991236165],[-88.81908559795845,46.02631181165703],[-88.81556117264641,46.02088127107303],[-88.79878469663433,46.02340651583763],[-88.7979124657062,46.02566172936188],[-88.80066710662486,46.03003559803039],[-88.79649687432635,46.03365518386035],[-88.78915231049122,46.028671335095524],[-88.77874403620102,46.031686238842255],[-88.78365792843377,46.023820774707794],[-88.77940185533845,46.01590553863347],[-88.7705269196624,46.01894110680334],[-88.77061828609385,46.025557131632844],[-88.75867767985346,46.019831066648756],[-88.73897990048478,46.02745668378932],[-88.72126280240771,46.02221914719909],[-88.71756094939272,46.01381222597086],[-88.7037107904325,46.018290206091265],[-88.67886923290934,46.013593040499764],[-88.66348645403625,45.99270273866565],[-88.66635239417697,45.990422156346376],[-88.66483681080845,45.9879095590511],[-88.63854611754665,45.98507458081445],[-88.61683723197478,45.98786914341168],[-88.612709510523,46.0044607855196],[-88.60117736451072,46.01776741613298],[-88.59354971336496,46.014768057682566],[-88.58734430624604,46.00570765122894],[-88.56566264592298,46.01567639582002],[-88.5490411517878,46.01291413174702],[-88.53958311954042,46.0145355051634],[-88.53368489083337,46.02114737937635],[-88.51474744252977,46.02002230130784],[-88.50636593476516,46.017607891928336],[-88.49806311547964,45.99613606725379],[-88.48990362253313,45.991648660035864],[-88.47549924627093,45.99323144051669],[-88.47077072920274,46.00099548517112],[-88.45867321763289,45.99951163257067],[-88.45006557568902,45.99027985664327],[-88.43476295684117,45.98833753372554],[-88.41643924614894,45.97532419356682],[-88.38885805265858,45.98260324435113],[-88.38050242718509,45.99176191113674],[-88.33028020589337,45.965833210069135],[-88.32679283393166,45.9573041444904],[-88.32030737107786,45.96365423466149],[-88.29353270482339,45.95106827257338],[-88.24689572721448,45.96352923955504],[-88.2447277134547,45.95305271425281],[-88.23727235643959,45.94838764216787],[-88.21030897585537,45.94429114697819],[-88.19205813105035,45.9526483427471],[-88.17015759583646,45.939570402608105],[-88.14765177640847,45.93742445957072],[-88.12681010117517,45.9259927034091],[-88.12530840023823,45.92185848113156],[-88.10246184608954,45.921543685343806],[-88.09493045760365,45.9153227370277],[-88.10635783290276,45.90214986564908],[-88.10137975352134,45.883057222017484],[-88.08182095690037,45.880198153059055],[-88.06976763075369,45.87293810112308],[-88.07524425891808,45.86968172726928],[-88.07483088200311,45.86490734863019],[-88.08275044011876,45.86462327574321],[-88.10519734416953,45.84241463018647],[-88.13405583276845,45.82219801900933],[-88.12995624456778,45.809888461299124],[-88.1076099698578,45.80303788914685],[-88.10313026396183,45.7913213078468],[-88.09503368663722,45.78593685103906],[-88.07226268786657,45.780119036043665],[-88.0502397633946,45.781179041524005],[-88.04145625602004,45.7841865168439],[-88.03972622173403,45.789624029008],[-87.99144823609478,45.795390537978726],[-87.98087317808094,45.776977872938005],[-87.98628776782867,45.77382183400874],[-87.98644747972492,45.7712600368142],[-87.96697158381677,45.76401905098352],[-87.96321819166856,45.75844834396794],[-87.90666093854789,45.75952134307829],[-87.89812181473488,45.752611417883315],[-87.87689854147133,45.75437679053155],[-87.8622136432884,45.74501697218912],[-87.86400953116689,45.73701054949924],[-87.85531903796226,45.726862838925946],[-87.83725601350166,45.71690408386428],[-87.81014512976202,45.71022803894323],[-87.80508422717682,45.7049738109486],[-87.80802749369852,45.70095406234412],[-87.80751807518837,45.69879570254251],[-87.78222814620723,45.683051717737094],[-87.78162543125298,45.67328175620079],[-87.82327107696294,45.66219461332441],[-87.82429168698359,45.64822555292212],[-87.81019658755102,45.63873031460569],[-87.79588934849322,45.61899980116111],[-87.7808464970804,45.61459720516618],[-87.77469036062641,45.601979072266865],[-87.77720097486012,45.58849938037954],[-87.78675293438204,45.58257868204773],[-87.79237361258257,45.56305751275957],[-87.8284134967802,45.56859317939975],[-87.83305476412454,45.56197178611162],[-87.80339223627965,45.53827083382384],[-87.80221336918017,45.51327338293614],[-87.79277159945691,45.499966853598806],[-87.81297766637218,45.46416193384211],[-87.83128713320376,45.457122256669614],[-87.86099387841674,45.43479562139087],[-87.84932501198854,45.40387313823053],[-87.85879612156309,45.39887019419517],[-87.85942013941009,45.38822830020418],[-87.87443819930067,45.37966142013767],[-87.87148793016341,45.371546787330175],[-87.87576310840755,45.368700091963284],[-87.87623276933702,45.36655263326236],[-87.87444682205651,45.3652710121904],[-87.86916849671324,45.36604628154494],[-87.86350953430814,45.35326890504673],[-87.85042009848571,45.34749054718051],[-87.85010011369313,45.34326975446316],[-87.8482511351026,45.34209730429129],[-87.83261121761784,45.35224626585549],[-87.75472733525864,45.34955210400872],[-87.75092644272696,45.3550347316836],[-87.73863492912582,45.35709546575477],[-87.71888909446895,45.37745939880897],[-87.6939558980479,45.389890682959255],[-87.67501916817422,45.38245205320431],[-87.67303518808416,45.37674232980333],[-87.65735237501765,45.36875239477172],[-87.65630956928412,45.358482373673255],[-87.64773139143207,45.35071997091313],[-87.64812851403987,45.339397194466386],[-87.6611894728494,45.32792393321587],[-87.66171319398862,45.32073679357085],[-87.67189091761024,45.308108132771174],[-87.6876084596095,45.29786607846514],[-87.6981433451039,45.281590192176914],[-87.69878248275027,45.269421201539465],[-87.71029090838591,45.25924680880137],[-87.71134139296507,45.23996646104094],[-87.72390006253984,45.23238472916152],[-87.72135704052963,45.22684702182522],[-87.72680054490569,45.219010250075144],[-87.7262006623,45.20939223331673],[-87.74143224768027,45.197878966337946],[-87.7365748327144,45.173778345918734],[-87.68390365154671,45.144133218257736],[-87.65960055565873,45.10754012283052],[-87.5849910466835,45.09649015275963],[-87.58959628867181,45.09439900497847],[-87.58958310041044,45.08960942373467],[-87.57752495001793,45.07181996843512],[-87.58247295805769,45.07159245966719],[-87.59376288005065,45.08415627355566],[-87.59888078712581,45.08350079753438],[-87.60841662485905,45.07742016335957],[-87.6214101330964,45.05574420558502],[-87.62507750306364,45.04716352562655],[-87.6234305069147,45.00213128609718],[-87.63027896964593,44.97678309493771],[-87.65646321481933,44.97141284023347],[-87.7023166182748,44.97396663862817],[-87.76271443911685,44.96562234741076],[-87.81336973494373,44.95432878135739],[-87.83920882446199,44.93282166947405],[-87.84430150701952,44.921078466565994],[-87.84034119917052,44.906993430689305],[-87.83119699978025,44.89627633124064],[-87.82124839045497,44.89904096914638],[-87.8285530303531,44.89457502346321],[-87.83092855355272,44.88644566949932],[-87.83332705976238,44.885142686972735],[-87.83288974690176,44.88094817207224],[-87.84868802708102,44.869900930642906],[-87.86717263229541,44.84205099641451],[-87.90194439212063,44.82770596841812],[-87.89987992200982,44.818872238488936],[-87.9078744636484,44.81488853690645],[-87.93428859665134,44.7659243421094],[-87.96584467195957,44.74326791198465],[-87.98314893562262,44.72115507809717],[-87.98598750127202,44.70178178545502],[-87.98814496681065,44.70299779224566],[-87.98995611564229,44.701417730967364],[-87.99013023926135,44.68703777772698],[-87.98834358047752,44.67236370284171],[-87.97835271721023,44.65633853120211],[-87.98215869815179,44.655446847612886],[-87.99216154629657,44.67449808801997],[-87.9952046245297,44.674859231192876],[-88.00348281086329,44.660586260973176],[-88.00294118837431,44.64361788729005],[-88.00948193346638,44.63690027005912],[-88.00555579400341,44.620990150157496],[-88.0086103072461,44.62484412399665],[-88.01348707075219,44.62261133756538],[-88.01655004844616,44.58216869046687],[-88.03608620005157,44.576815147967544],[-88.04241420641793,44.56977643102172],[-88.04070739006931,44.564803405176406],[-88.0426264718791,44.56361402300436],[-88.04223114481127,44.561407825423565],[-88.03768532280858,44.558748751121975],[-88.03454496915248,44.56113776505265],[-88.00648869666632,44.54064514143378],[-88.0075061748025,44.53713089250834],[-88.00633939971694,44.53544557651711],[-88.00430218062392,44.535672275563506],[-87.99931817407426,44.54050722814076],[-87.97096085868716,44.53022806523422],[-87.94351392361789,44.529710158365326],[-87.92429173600593,44.540317499446324],[-87.90106165205651,44.57332282597376],[-87.90221268024139,44.5757953778258],[-87.91373654047148,44.57799197297304],[-87.8884939421183,44.591298317543675],[-87.88015451942228,44.602879100161644],[-87.86764009144369,44.60784620569039],[-87.8570020276966,44.61952571588557],[-87.84074993338184,44.6191488578972],[-87.8091622536499,44.636163530432604],[-87.77517047141646,44.63931695681681],[-87.75635216966528,44.64900940895371],[-87.74853524279614,44.667645822046474],[-87.71979805209685,44.69351752213235],[-87.72010659834925,44.72535504704771],[-87.60990384489345,44.83847722899289],[-87.57837957158851,44.85285482747736],[-87.55059715519337,44.851783909151465],[-87.55056034069355,44.84715889412651],[-87.55972191430972,44.84471732614541],[-87.56399018901493,44.83212413050299],[-87.56320062308367,44.830259076895096],[-87.56118723070414,44.830039781555136],[-87.55496670861945,44.83633934067877],[-87.55957987589463,44.82646555812842],[-87.5585656534266,44.8246248703102],[-87.55517326622427,44.82405274794268],[-87.55388605595013,44.8267326636931],[-87.54107011821641,44.832522300735796],[-87.53253662380052,44.8501804384808],[-87.53343532083302,44.85787526208506],[-87.53020371469843,44.85107832723214],[-87.51905530335162,44.84934687022977],[-87.50415544809115,44.85521597402306],[-87.50423586427594,44.861088023025964],[-87.51476659142875,44.86997768989694],[-87.49879549737342,44.864447329532105],[-87.49812971013601,44.856656056322194],[-87.4871816480147,44.85441870232985],[-87.46091760756207,44.877282069613045],[-87.4339778024111,44.89297520145538],[-87.42049311402495,44.88748850438654],[-87.4197762610436,44.87565185274548],[-87.4047955883375,44.85939177025185],[-87.39073182293666,44.832391495535944],[-87.388854349449,44.83149666650056],[-87.38335721303926,44.83325377079123],[-87.38253522470426,44.83534760813654],[-87.3846312898732,44.83782813073478],[-87.38412395513637,44.88722954674237],[-87.39373182423775,44.898571608064174],[-87.41143806858095,44.90582570604289],[-87.39629714975821,44.91976858416197],[-87.39837645271494,44.924717281321094],[-87.39393111623086,44.93378475717492],[-87.37544180195167,44.956109377111865],[-87.36086037393659,44.98718584857329],[-87.34722602023132,45.000651529130224],[-87.342604934003,45.01221912396],[-87.32979214248428,45.01894241705299],[-87.32124927794236,45.038351240188554],[-87.30981908667492,45.04311847887484],[-87.30190968620172,45.053686486106756],[-87.29353640035426,45.04609557112647],[-87.28282049981216,45.0481116252675],[-87.28154382700787,45.07370768438927],[-87.26306935679204,45.084305848973976],[-87.2575529548937,45.121780076871545],[-87.24865734186145,45.13224828286089],[-87.24199882790418,45.129549401847115],[-87.23975290748493,45.13078845986303],[-87.24019033452008,45.152546046991986],[-87.24178643159989,45.15445044223245],[-87.26790527077377,45.15727310214783],[-87.27081034974658,45.166619737050524],[-87.26694926327635,45.17370402328637],[-87.25798315731426,45.17718050841357],[-87.23844304786213,45.1668703515939],[-87.22219350068167,45.17493228966679],[-87.22288630253692,45.16700823553006],[-87.22178827444887,45.165244296207334],[-87.19595524047371,45.163259771046604],[-87.18672145600617,45.15075456107703],[-87.17490601507336,45.150253254377056],[-87.17023564785373,45.15447592614169],[-87.1753615192057,45.17304648142315],[-87.16677781300506,45.18353181157393],[-87.14985820678314,45.18547537641584],[-87.14566763694641,45.1920876186304],[-87.12005842075646,45.19239180482173],[-87.1233698107053,45.22282076737071],[-87.1171765135092,45.24040881884986],[-87.10622983737446,45.2583335417521],[-87.07615172837099,45.25505955186994],[-87.07827619655993,45.265002972282865],[-87.06810700141249,45.29545502453572],[-87.05922908163627,45.29853512511958],[-87.0523806645184,45.28678487165888],[-87.04331782125853,45.2847718685836],[-87.02448977176459,45.28648829090143],[-87.02307244496174,45.2938507032804],[-87.01641572946527,45.29931217824223],[-87.00719007946277,45.29453448738971],[-86.98399880284474,45.295541718520234],[-86.97537001018232,45.28796047155427],[-86.97044173085192,45.27776236882243],[-86.98485543789565,45.26077893132352],[-86.98185141864491,45.248739989011355],[-86.97273297433215,45.246166899299105],[-86.9849087408856,45.23628129462149],[-86.97823189570501,45.22764342483964],[-86.981829881958,45.218158996357936],[-87.00278571793574,45.21159379976291],[-87.00833039462113,45.22417396548739],[-87.02171966779204,45.23284130717715],[-87.03790828262905,45.228926575059525],[-87.03743803029288,45.226945108972345],[-87.03210283596628,45.223172632942706],[-87.03413941261405,45.220763247206264],[-87.0316227543509,45.2186545205511],[-87.03273307476637,45.213337956854346],[-87.0406278255566,45.2102915739479],[-87.03818611870913,45.1994480446318],[-87.04631424412403,45.17210749502925],[-87.04515297578526,45.15858964750166],[-87.03155752661495,45.15043762198739],[-87.03202730165131,45.141621567384696],[-87.04678650673169,45.13488060903945],[-87.06952721803513,45.15771243763214],[-87.07862752236723,45.15567518237056],[-87.07772070196151,45.14755051043643],[-87.08321562192462,45.144788601064754],[-87.07495877877221,45.12812638253223],[-87.05745215268406,45.12482408057991],[-87.05102379035819,45.116565062756344],[-87.04859439232999,45.10880307651837],[-87.05277961434903,45.09727843420644],[-87.04861302387565,45.09479226008307],[-87.04769181605482,45.08795739557175],[-87.05692294973399,45.09257248923606],[-87.06632825259791,45.07852168561211],[-87.0671466862115,45.08422282423786],[-87.07580735831738,45.087528171957324],[-87.0816464844729,45.09549465058881],[-87.09016214103269,45.09451272254579],[-87.09603527069655,45.083997355722765],[-87.08510191656991,45.07917224045396],[-87.0828205520114,45.07280369414543],[-87.079907746224,45.073561141285126],[-87.08358666719643,45.065911557855785],[-87.07965547305749,45.058143638190955],[-87.09012434560805,45.055934987916665],[-87.09082636533819,45.05107568594947],[-87.1218988054548,45.057135671851775],[-87.12386888523213,45.05638968987235],[-87.12490235102142,45.04264158794848],[-87.1389798002495,45.01280502633938],[-87.16435378470838,45.00412303140256],[-87.1891899074494,44.96876318433705],[-87.18810620231423,44.94846899658731],[-87.1750611908891,44.93990217265388],[-87.17166383161492,44.93140602127317],[-87.2152953655818,44.907380254307704],[-87.21688041309254,44.897674180944215],[-87.20619161423849,44.885971787757434],[-87.2049374444207,44.87537637234422],[-87.26723294549168,44.84676667131785],[-87.28255888621756,44.81472391784559],[-87.30446486364403,44.80484246344753],[-87.31297766211763,44.79475155816024],[-87.31085236501067,44.791664385413256],[-87.31755876710501,44.78940691732385],[-87.31902830462343,44.77151684399662],[-87.33524198715033,44.74983207990089],[-87.34835766071137,44.710402894312296],[-87.37691897797468,44.67410137235613],[-87.38239069333585,44.65727838429233],[-87.40209451476133,44.6307863759784],[-87.42123621067299,44.61478624057117],[-87.43233297103298,44.61132232035004],[-87.43319979996018,44.609426447058695],[-87.43186329208875,44.60763948644538],[-87.43759737095074,44.60473790217585],[-87.45233687269203,44.572349727802205],[-87.46812083263751,44.55182919194859],[-87.48368799661542,44.511351732569],[-87.49227107214723,44.46555333038823],[-87.4991071807563,44.46014545479856],[-87.50403469770772,44.42795140671445],[-87.51711001639214,44.39717662575987],[-87.51707036171516,44.37665757158114],[-87.54516055738176,44.32271090317334],[-87.54106509962818,44.29299172888196],[-87.5128299452523,44.240418264685594],[-87.50714099347105,44.22397769075355],[-87.50756490099621,44.20689538612555],[-87.5170352696023,44.18287849008631],[-87.52952405542685,44.16747507457169],[-87.56067795382764,44.14264676872943],[-87.61852770133397,44.123732637828525],[-87.64680656159616,44.10427685046885],[-87.64366962434268,44.091368691722074],[-87.65415514114511,44.08159548028258],[-87.65513838539738,44.05291694666694],[-87.68250892483434,44.021823089454564],[-87.69548969500163,43.989587275401085],[-87.70076901929306,43.961681901192826],[-87.71908888047486,43.93759313052227],[-87.73593936151983,43.880200419999284],[-87.72822930115558,43.851239707951045],[-87.7287411791424,43.82192654129143],[-87.7256651519337,43.80848545407717],[-87.70549014406299,43.77345407688475],[-87.69519101302757,43.76453470845417],[-87.70136255369432,43.75669350647483],[-87.7014422482392,43.7546662093816],[-87.69259112252786,43.7494812348735],[-87.70404345771988,43.746587753432415],[-87.70943371178713,43.737441617792264],[-87.70293868021736,43.70827076072139],[-87.7034872903762,43.684691741982505],[-87.79027511810453,43.561597683418306],[-87.79409050246922,43.5251329565111],[-87.79112416967875,43.4928487829121],[-87.80364262652706,43.464167883433646],[-87.85523603912412,43.40576023073316],[-87.86400766591979,43.38977587278757],[-87.86773128752883,43.38765815191298],[-87.86737559769028,43.38549972761329],[-87.86419145880257,43.3834937743266],[-87.87130160610286,43.38091611572111],[-87.87708214438007,43.36928362261911],[-87.88884574122798,43.307055995056324],[-87.90161708550141,43.2841827366274],[-87.91148501993618,43.252444854878654],[-87.90917118662837,43.233318495912485],[-87.8967805904584,43.21447526319615],[-87.89708926158974,43.19950526241782],[-87.88093251299871,43.17059702460992],[-87.90064164628687,43.13694047651393],[-87.90049167506551,43.12637602439158],[-87.87635186721266,43.09890787642483],[-87.87037014896828,43.081223586209006],[-87.86384890225129,43.07071636139167],[-87.88143565654347,43.053714079883385],[-87.88023053612972,43.04468932069944],[-87.8825522037209,43.04590626428012],[-87.89435795307199,43.04223986622091],[-87.89401552158817,43.03039182609494],[-87.89664595082274,43.02739256094593],[-87.89469143013201,43.024926395192374],[-87.8964524045622,43.020477033755085],[-87.89303652307528,43.01810263257024],[-87.89303905780278,43.01560057732241],[-87.89122333830869,43.01447673623487],[-87.89110728547479,43.00736931728479],[-87.88439169934743,43.004859875444836],[-87.88674200297815,43.00177422494445],[-87.88643848455337,42.9997659308909],[-87.85459043720327,42.977981598849375],[-87.84534606311276,42.962123463362836],[-87.84595743489153,42.92952720988694],[-87.83925963468499,42.913041139295345],[-87.84754113065688,42.89759343384551],[-87.84346293407935,42.89019782597789],[-87.84624264237206,42.883540182651586],[-87.83442166807069,42.854848252217884],[-87.82497178788331,42.84615731019482],[-87.82621452122463,42.84208372634236],[-87.82368819457888,42.834834645380134],[-87.79481371906586,42.807161294295234],[-87.75730878127804,42.78162672407302],[-87.77827938130116,42.76201456081332],[-87.78122287976034,42.74926119356104],[-87.77808446983323,42.71891078734197],[-87.78104579372842,42.71728605169687],[-87.78517421458234,42.69995601444146],[-87.8042813106897,42.67343583253954],[-87.81971169373533,42.62230851516053],[-87.81607597025616,42.5954791465092],[-87.80741076109518,42.58817960715755],[-87.81382147858112,42.57816918473268],[-87.81097503317478,42.5163051146074],[-87.8004805521928,42.491922359259355],[-88.08277996812112,42.495636973359495],[-88.89459016282123,42.49417508941681],[-90.07365878346984,42.50827487044365],[-90.64283881188165,42.50848310576796],[-90.636090470062,42.51836583914283],[-90.64459197388966,42.54104106521605],[-90.65412538459904,42.54990118370523],[-90.66169777026542,42.568142651526834],[-90.68697266105333,42.59177546507632],[-90.69407007692273,42.6145907824755],[-90.70944966925276,42.63604682290925],[-90.88738961631644,42.67246175437762],[-90.92116109016527,42.68537364081024],[-90.94920959168707,42.68557111784389],[-90.97773334968532,42.69681872550507],[-91.00014969314695,42.71614957745427],[-91.02678445629878,42.72423007042843],[-91.03570581792685,42.737214344298344],[-91.05373129122775,42.738240145759114],[-91.05651679187694,42.74727960550689],[-91.06505595194237,42.75133913781286],[-91.06074264610598,42.76163536335389],[-91.0695466006837,42.76962935699456],[-91.07863255560542,42.82688205404671],[-91.09405729240224,42.83081491501112],[-91.09150881604708,42.849735477563804],[-91.09765319468552,42.859871997424165],[-91.10071260062011,42.88299277477931],[-91.1174183496016,42.895824391921785],[-91.14561244572792,42.90800746582947],[-91.14384691880291,42.922872599008706],[-91.14987729276832,42.94195513790048],[-91.14608368751787,42.960744463151634],[-91.15655975282105,42.978226947856854],[-91.17945426410614,43.06742725930976],[-91.17525082672678,43.134663689834746],[-91.14632765339397,43.15237966415116],[-91.12216774599203,43.19725306901157],[-91.06658682023708,43.23916577443954],[-91.05870680290987,43.254796067380994],[-91.07264687248579,43.262130493953194],[-91.07400561792588,43.275072247883756],[-91.10740718195268,43.31372648183757],[-91.13734677786883,43.32974786543085],[-91.20396238157515,43.34985414113917],[-91.21505315949513,43.36718458969301],[-91.20606432333915,43.37508501583443],[-91.19778416907616,43.395436226784064],[-91.2055923116042,43.42292615394869],[-91.23336419842488,43.45516823042129],[-91.21538019744858,43.484821682562746],[-91.21730785077784,43.51174814870011],[-91.23293940126041,43.52396842572498],[-91.24409018660799,43.54561992266915],[-91.23289690589392,43.56476843562525],[-91.23196915977688,43.58146752048477],[-91.26897640890854,43.616578748532014],[-91.26258549801365,43.641626929469936],[-91.27174672371366,43.65492988979187],[-91.27324439972962,43.666563865528744],[-91.26845306439671,43.70982337452501],[-91.25603329330623,43.72977006241765],[-91.25542803275827,43.74487540489782],[-91.24449037410473,43.774386944922036],[-91.26243055932453,43.792171641071704],[-91.28431605968255,43.847158203842156],[-91.31098904322072,43.86738256688128],[-91.32075479120098,43.88847925994278],[-91.33813931408952,43.89766588086962],[-91.3477113960318,43.911853573750086],[-91.35742341434442,43.91723252209986],[-91.36681404118751,43.93759876130245],[-91.38573366618746,43.954173702260064],[-91.40600973118362,43.96393073524352],[-91.42518654427018,43.98432314976992],[-91.43434379971094,43.997910169215345],[-91.46331897971886,44.00895502678687],[-91.48086970684471,44.008146964852926],[-91.50721704385138,44.01898189296355],[-91.58255137861863,44.02737514323833],[-91.59557329426777,44.03330458117747],[-91.61058998608421,44.049316835988705],[-91.6478715964472,44.06411114905284],[-91.68147440699767,44.097280991165775],[-91.70748910423065,44.10390778418153],[-91.71065041984984,44.12034313326917],[-91.72141733010656,44.13016944937717],[-91.75174655078003,44.13478788265282],[-91.8080142609924,44.159240382930186],[-91.82925852020563,44.17838420026967],[-91.87515607930014,44.20057646393215],[-91.87753749306682,44.21298404765514],[-91.89269548982925,44.23110555008583],[-91.8872519674792,44.2515344912286],[-91.89600593627617,44.26287180228287],[-91.8966253001022,44.274551346856825],[-91.92460989409297,44.291815775505],[-91.91385510243447,44.31010414292956],[-91.9186321531201,44.32266727697905],[-91.92564347226516,44.33348720160119],[-91.94130941211922,44.34098032014398],[-91.96362304356721,44.36207448941804],[-92.03814572802891,44.38873334258111],[-92.05669037396393,44.402714424069096],[-92.07860464868313,44.404870889189596],[-92.12451549206706,44.42210568059272],[-92.19531398466503,44.43378145192435],[-92.23085488125609,44.444498342089055],[-92.29100295642355,44.485466146920565],[-92.30221255776769,44.50029888111918],[-92.30312918963863,44.51872023045982],[-92.3139720915585,44.53781736657742],[-92.33614070594659,44.553931860514965],[-92.4154644030036,44.56047816645556],[-92.43862582707841,44.55264160392654],[-92.45909989089591,44.56279764801998],[-92.48076919757236,44.568380601596786],[-92.49371676613856,44.566054898198836],[-92.51922298245249,44.575188161264855],[-92.54888700439353,44.5682547215215],[-92.55001584771213,44.581249171486505],[-92.56892367324181,44.60322345697268],[-92.57723518595104,44.60489194661993],[-92.58621578314913,44.600090701723786],[-92.60173100394437,44.61201271894297],[-92.62163944626288,44.614931051884426],[-92.62035421892914,44.634151460796076],[-92.6321473542999,44.64919168059306],[-92.660987143233,44.66090168259097],[-92.73197898256942,44.71428805370034],[-92.79233507717734,44.73936376139754],[-92.80841223011376,44.75186101579149],[-92.80444252660352,44.770758751369435],[-92.7857252454683,44.79182954838667],[-92.78075116571141,44.812298801501925],[-92.76608213157157,44.83556149622528],[-92.76949845993386,44.86200057651125],[-92.76365090983258,44.87444274668835],[-92.77456794240908,44.89808316512083],[-92.75874763338564,44.90913421084207],[-92.75071168789775,44.937203534616955],[-92.75471644106923,44.95582678468435],[-92.76944276497032,44.97215094101742],[-92.77122795482282,45.001377509719035],[-92.76266797543538,45.02446145532151],[-92.79558429518568,45.04924555752154],[-92.8031211764659,45.061566003182],[-92.79265499530584,45.07876011226577],[-92.74013725981159,45.11595424665112],[-92.7521932255883,45.142494954911065],[-92.74912035515848,45.149082074281296],[-92.75238432835904,45.17349174887662],[-92.76680527004214,45.185466968437744],[-92.76210618253803,45.2071637553029],[-92.75839540995604,45.207939116524386],[-92.75187478755602,45.21898547296643],[-92.76026146320629,45.25171664386414],[-92.75218825191413,45.26627241074857],[-92.7620011082427,45.28821196188837],[-92.73712645196696,45.30046772363699],[-92.70876208160637,45.32247006521343],[-92.69909181391895,45.33660161837335],[-92.70272035966734,45.358466792184856],[-92.67921372039746,45.37273917768169],[-92.66410256563933,45.393306117271116],[-92.6506477144099,45.39880991085898],[-92.6466541557904,45.441436048744194],[-92.65380701205956,45.45534412599118],[-92.68023268470826,45.46434588610601],[-92.71280907652327,45.50476771378456],[-92.72667460612121,45.51446321673158],[-92.72664616028898,45.541345263423736],[-92.76964899834597,45.566603150605275],[-92.82330905051336,45.560935749070126],[-92.87108105112743,45.56758361641778],[-92.8837467214882,45.57548444248162],[-92.8864400244054,45.59867883384294],[-92.88261937729267,45.61058354086185],[-92.88943081913516,45.641201874541586]]],[[[-87.37660968523758,45.19817137199214],[-87.36516798290918,45.20313729291701],[-87.35274825969422,45.19839418585232],[-87.33537264274024,45.211365631546336],[-87.33234709475566,45.20638447819528],[-87.33706320613578,45.20168694441703],[-87.33462514055614,45.19288081227895],[-87.33814715121163,45.17121823257927],[-87.3268464577618,45.15642895373641],[-87.37641294333957,45.17766465384749],[-87.37754922968126,45.18361318520775],[-87.37660968523758,45.19817137199214]]],[[[-90.46978637249896,46.989203765110375],[-90.45737461691776,47.01346011689825],[-90.4570768300653,47.043974433764284],[-90.44914718409134,47.06593818474487],[-90.41727806882183,47.07746166341392],[-90.40865589988911,47.0738715696173],[-90.39338747673993,47.07578138085356],[-90.39459120800585,47.05902070840192],[-90.40711770840089,47.0382413328246],[-90.40328875703688,47.026659320336904],[-90.40955642521484,47.01688679131775],[-90.42181390094673,47.01242031177375],[-90.43329700197722,47.000930911137615],[-90.45958525008265,46.99695925761081],[-90.46978637249896,46.989203765110375]]],[[[-90.51706594829473,46.87618449009059],[-90.49653650439096,46.88618973846437],[-90.45097571158097,46.8997285183488],[-90.44868246859221,46.8971334120957],[-90.48416298816873,46.87230277104464],[-90.50017977005272,46.87110810491915],[-90.51706594829473,46.87618449009059]]],[[[-90.65480605604891,46.9195351409496],[-90.63676949634015,46.942186763098164],[-90.59862159599562,46.953384337299006],[-90.55251227223698,46.960509941910004],[-90.52959113267971,46.96872640135618],[-90.50768180265844,46.95822439861296],[-90.52240825099706,46.94415016940175],[-90.52489306294021,46.93363224519257],[-90.54459888398908,46.93041362291065],[-90.5456461682176,46.91890911243801],[-90.5383857487714,46.912210290775235],[-90.54429779841395,46.90847348396935],[-90.55210343760369,46.908019524895984],[-90.5520365199829,46.91725909420627],[-90.56742918374528,46.92466444386784],[-90.59010712555114,46.9155304709072],[-90.60841551471678,46.920657224983145],[-90.61501742360481,46.912218063195866],[-90.63618214632496,46.90655972186553],[-90.64334200704302,46.90766998875811],[-90.65480605604891,46.9195351409496]]],[[[-90.57561471820713,47.03340235377568],[-90.56266963860884,47.0407090263561],[-90.56603772016652,47.031284864459494],[-90.54566431945071,47.017686848379164],[-90.54648612222601,47.00532800870343],[-90.55222626088867,46.99998103187735],[-90.56450426256662,46.995348057525526],[-90.56998291817885,47.026012717769746],[-90.57561471820713,47.03340235377568]]],[[[-90.79164745327549,46.785051580983584],[-90.7331548942207,46.80039173470035],[-90.7281918730001,46.81046830178495],[-90.71670309230345,46.81900553968486],[-90.65707897353309,46.8435497242781],[-90.6210170766303,46.873663342888214],[-90.60324283674589,46.87316754698417],[-90.56885376078881,46.848133069054846],[-90.57927084905982,46.84112036988242],[-90.61469909788731,46.83770735220601],[-90.67247719267266,46.820237108764644],[-90.67368230236535,46.81870206416663],[-90.67426364641801,46.80361841039003],[-90.66905387227821,46.79906165617709],[-90.65289636202452,46.79794001750795],[-90.65722056917245,46.78871307832985],[-90.69893999149178,46.78193700187926],[-90.71820195627227,46.78496270551696],[-90.76561284020542,46.7543965573324],[-90.78818010404436,46.75302639387915],[-90.78930641077537,46.75957139530211],[-90.78246552585122,46.76974856167513],[-90.79164745327549,46.785051580983584]]],[[[-90.62724632378477,47.00288781663284],[-90.6105097460431,47.00846428462184],[-90.60252430456197,46.99922949666215],[-90.61771637072059,46.989717228942084],[-90.62724632378477,47.00288781663284]]],[[[-90.6784637910016,46.95635084354046],[-90.65469009371995,46.976585018282165],[-90.63414893738786,46.979739290962335],[-90.63672302447685,46.96889844768285],[-90.66132279090445,46.95338951971062],[-90.67218928748174,46.94985886030726],[-90.6784637910016,46.95635084354046]]],[[[-90.6520745353956,47.03091080472272],[-90.64530711026622,47.040406302874],[-90.63711684502454,47.03774564215166],[-90.64185124709131,47.02538936463439],[-90.6520745353956,47.03091080472272]]],[[[-90.69300015239419,47.02608228543884],[-90.68798832625878,47.043866931840526],[-90.66582506885311,47.04534250967002],[-90.65725095056756,47.05287583166438],[-90.64679059291447,47.0545723170994],[-90.66944395696774,47.04185071026465],[-90.67894013182608,47.01932096262141],[-90.69300015239419,47.02608228543884]]],[[[-90.70276173624141,46.88452352608508],[-90.6779059686676,46.89585509177646],[-90.66744439414177,46.89135411243285],[-90.6732095306096,46.883817173092964],[-90.68543905619994,46.87991131502943],[-90.70276173624141,46.88452352608508]]],[[[-90.7118899400806,46.98826448461461],[-90.70320531527226,47.00419230482904],[-90.69551950057722,47.00832539767732],[-90.67918392623895,47.00644758485343],[-90.67003991199468,46.9999480741356],[-90.69499967047099,46.983594191756396],[-90.70678510516453,46.983435292759275],[-90.7118899400806,46.98826448461461]]],[[[-90.76485188552299,46.94707340560215],[-90.74277635738939,46.96354526250116],[-90.71530936221473,46.958547480023576],[-90.69366038104897,46.93575169387758],[-90.68933771389425,46.91838492478154],[-90.7366841067072,46.913966699636106],[-90.75407325111165,46.92960046020233],[-90.76485188552299,46.94707340560215]]],[[[-90.76365716271333,46.83193788631786],[-90.74896803812118,46.86296337380707],[-90.7350982686781,46.87305137808541],[-90.72635227048387,46.87231060684256],[-90.72061692940589,46.86521088781524],[-90.73277073815262,46.84756361614021],[-90.74935510094942,46.83426147537726],[-90.76365716271333,46.83193788631786]]],[[[-90.73194829755302,47.07780420125024],[-90.72921475424494,47.080766738283266],[-90.72296945759828,47.075767697473935],[-90.7219755485181,47.06321170660051],[-90.72962003977194,47.06428102276871],[-90.73194829755302,47.07780420125024]]],[[[-90.77660011354176,47.024017163610765],[-90.759334978674,47.03490908558868],[-90.7456999101163,47.02657931036757],[-90.7390965878386,47.01201726662342],[-90.74814304511585,46.99963941180384],[-90.76605335889359,47.0018352768351],[-90.77660011354176,47.024017163610765]]],[[[-90.80593672867404,46.97185666404342],[-90.7963572595242,46.980355369477536],[-90.78449967532069,46.978232384589106],[-90.7897262778013,46.96999767492644],[-90.80593672867404,46.97185666404342]]],[[[-90.87852762682621,46.98900461586476],[-90.87653860415945,46.99178762725365],[-90.86908571457168,46.98560791969162],[-90.85121562621681,46.98500197086051],[-90.85901740041602,46.975967955627965],[-90.87852762682621,46.98900461586476]]],[[[-90.98340428124556,46.983063887179654],[-90.97139142996134,46.98906003958824],[-90.94461069358056,46.991928304241675],[-90.93793778130292,46.99679263781355],[-90.9376707658922,47.003549115564304],[-90.9312655447193,47.0018349805933],[-90.9236350165759,46.98870175753214],[-90.93419416023485,46.98178289491761],[-90.93090731420979,46.96855422604828],[-90.9340334662244,46.96244037597302],[-90.96582572569419,46.96219340232753],[-90.97207086998563,46.971281401022644],[-90.97945441524024,46.97157123862725],[-90.98340428124556,46.983063887179654]]]]}}]}